Zone,Div,Address,Location,Area,latitude,longitude
2,17, THIRUPATHI DEVASTHANAM NAGAR,Vadaperumbakkam,Madhavaram,13.17079409,80.22105666
2,17, V.C.N. SALAI,Vadaperumbakkam,Madhavaram,13.17574984,80.21785163
2,17, VADAPERUMBAKKAM ROAD,Kosapur,Madhavaram,13.18350963,80.23230006
2,17, THIYAGI VISWANANDHA DASS NAGAR,Kosapur,Madhavaram,13.18523337,80.23507034
2,17, THIYAGI VISWANANDHA DASS NAGAR,Kosapur,Madhavaram,13.18487364,80.23504671
2,17, THIYAGI VISWANANDHA DASS NAGAR,Kosapur,Madhavaram,13.18480837,80.23467546
2,17, THIYAGI VISWANANDHA DASS NAGAR,Kosapur,Madhavaram,13.18534227,80.23740604
2,17, THIYAGI VISWANANDHA DASS NAGAR,Kosapur,Madhavaram,13.18503481,80.23749846
2,19, MMDA 52TH STREET,Mathur,Madhavaram,13.17298418,80.24661388
2,19, MMDA 77TH STREET,Mathur,Madhavaram,13.17349861,80.24784783
2,19, MMDA 19TH STREET,Mathur,Madhavaram,13.17223276,80.24464781
2,19, MMDA 21ST STREET,Kosapur,Madhavaram,13.17261142,80.24460831
2,19, MMDA 26TH STREET,Mathur,Madhavaram,13.17368267,80.24447779
2,19, MMDA 50TH STREET,Mathur,Madhavaram,13.172511,80.24593576
2,19, 200 FEET ERIKARAI,Mathur,Madhavaram,13.16749831,80.22891059
2,19, KAMARAJAR SALAI,Mathur,Madhavaram,13.16709059,80.24844974
2,19, KAMARAJAR SALAI,Mathur,Madhavaram,13.16732216,80.24903309
2,19, Chinnasamy nagar 1st street,Mathur,Madhavaram,13.17051132,80.24142882
2,19, TEACHER'S COLONY,Mathur,Madhavaram,13.17044504,80.24350631
2,19, CPCL 3rd Main Road,Mathur,Madhavaram,13.17292698,80.2400925
2,19, CPCL 1st Street,Mathur,Madhavaram,13.17434226,80.23982933
2,19, CPCL 2nd Street,Mathur,Madhavaram,13.17424548,80.23957786
2,19, CPCL 3rd Street,Mathur,Madhavaram,13.17415719,80.239364
2,19, CPCL 13th Street,Mathur,Madhavaram,13.17444908,80.24019346
2,19, Gokulam street,Mathur,Madhavaram,13.16599426,80.23668428
2,19, MMDA 4TH STREET,Mathur,Madhavaram,13.16959566,80.24490533
2,19, MMDA 10TH STREET,Mathur,Madhavaram,13.16832434,80.24514658
2,19, MMDA 34TH STREET,Mathur,Madhavaram,13.16844575,80.24648491
2,19, MMDA 30TH STREET,Mathur,Madhavaram,13.16806635,80.24652084
2,19, MMDA 113TH STREET,Mathur,Madhavaram,13.17230986,80.25076517
2,19, PONNUSAMY NAGAR,Mathur,Madhavaram,13.17129813,80.23787991
2,19, MMDA 2ND MAIN ROAD,Mathur,Madhavaram,13.17243467,80.24788187
2,19, MMDA 6TH STREET,Mathur,Madhavaram,13.16793726,80.24519584
2,19, MMDA 39TH STREET,Mathur,Madhavaram,13.17059549,80.24690531
2,19, MMDA 41TH STREET,Mathur,Madhavaram,13.17012728,80.24626495
2,19, MMDA 40TH STREET,Mathur,Madhavaram,13.17021846,80.24696587
2,19, MMDA 105TH STREET,Mathur,Madhavaram,13.17019489,80.25129799
2,19, MMDA 74TH STREET,Mathur,Madhavaram,13.17104416,80.24892901
2,19, MMDA 64TH STREET,Mathur,Madhavaram,13.16879444,80.24923613
2,19, MMDA 63TH STREET,Mathur,Madhavaram,13.16841138,80.24928915
2,19, MMDA 83TH STREET,Mathur,Madhavaram,13.17323806,80.24863083
2,19, MMDA 91TH STREET,Mathur,Madhavaram,13.16962683,80.2504406
2,19, MMDA 71TH STREET,Mathur,Madhavaram,13.17047679,80.24901723
2,19, MMDA 72TH STREET,Mathur,Madhavaram,13.17039463,80.24828139
2,19, MMDA 111TH STREET,Mathur,Madhavaram,13.17190336,80.25068331
2,19, CPCL 12th Street,Mathur,Madhavaram,13.17269243,80.2395814
3,25, GANGAIAMMAN KOIL ST,Kathirvedu,Madhavaram,13.15096979,80.20356366
3,25, Srinivasa Nagar,Kathirvedu,Madhavaram,13.14227251,80.19517309
3,25, SATHYAMOORTHY NAGAR 3RD STREET,Kathirvedu,Madhavaram,13.14503404,80.19832997
3,27, ASSISI NAGAR 9TH ST,Madhavaram,Madhavaram,13.1625793,80.23281167
3,22, Grushanthi Nagar 2nd Cross Street,Puzhal,Madhavaram,13.17198313,80.20094434
3,22, MACRO MARVEL 1ST CROSS STREET,Puzhal,Madhavaram,13.17044305,80.21520941
3,22, MACRO MARVEL 3RD CROSS STREET,Puzhal,Madhavaram,13.17161394,80.21330127
3,23, Sri Balaji Nagar 3rd Main Road,Puzhal,Madhavaram,13.16791511,80.21608352
3,23, Sri Balaji Nagar 3rd Main Road,Puzhal,Madhavaram,13.16300663,80.21728736
3,23, G.N.T. ROAD,Puzhal,Madhavaram,13.15545841,80.20514251
3,23, AMBATTUR ROAD,Puzhal,Madhavaram,13.15727007,80.19613253
3,23, Sri Balaji Nagar 1st Road,Puzhal,Madhavaram,13.16231601,80.22229906
3,23, Rettaimalai Srinivasan Street,Puzhal,Madhavaram,13.15662083,80.20659833
3,23, Sri Balaji Nagar 1st Street,Puzhal,Madhavaram,13.16199843,80.22183308
3,23, Sri Balaji Nagar 1st Road,Puzhal,Madhavaram,13.16074766,80.22017003
3,23, G.N.T. ROAD,Puzhal,Madhavaram,13.15507422,80.20717071
3,23, AMBATTUR ROAD,Puzhal,Madhavaram,13.15599145,80.19622567
3,23, Gangadaran Main Street,Puzhal,Madhavaram,13.15828439,80.2097494
3,23, THIRUVALLUVAR ST,Puzhal,Madhavaram,13.15967252,80.20753975
3,24, Jasmin Nagar,Surapet,Madhavaram,13.13895284,80.18094008
3,24, PUTHAGARAM ROAD,Puthagaram,Madhavaram,13.1380254,80.19098239
3,24, SRI LAKSHMI AMMAN NAGAR 5TH STREET,Puthagaram,Madhavaram,13.13910064,80.19532028
3,24, DG NAGAR JP NAGAR LINK ROAD,Surapet,Madhavaram,13.1447461,80.19104461
3,25, Srinivasa Nagar,Kathirvedu,Madhavaram,13.14460611,80.19534547
3,25, Padmavathy Nagar,Kathirvedu,Madhavaram,13.14328829,80.19940893
3,25, Brila Avenue,Kathirvedu,Madhavaram,13.1456136,80.20217319
3,25, Thirumal Srinivasa Nagar,Kathirvedu,Madhavaram,13.14302818,80.20421013
4,34, Venkateswara Colony 5th Street,Kodungaiyur,Perambur,13.14420233,80.24235301
4,34, K.K.R. Town 11th Cross Street,Jambuli,Perambur,13.1423254,80.24000224
4,34, Binny Nagar Main Road,Kodungaiyur,Perambur,13.14418192,80.24459545
4,34, Binny Nagar Main Road,Kodungaiyur,Perambur,13.14321031,80.24445031
4,34, Poongavanam Nagar Main Road,Kodungaiyur,Perambur,13.14246714,80.24648124
4,34, Venkateswara Nagar (Part-I) 3rd Street,Kodungaiyur,Perambur,13.14030749,80.24882982
4,34, Union Carbide Colony 14th Street,Kodungaiyur,Perambur,13.13754603,80.25294028
4,34, Thai Nagar 2nd Street,Kodungaiyur,Perambur,13.13974623,80.25204511
4,34, Thai Nagar 2nd Street,Kodungaiyur,Perambur,13.14137379,80.2570902
4,34, Jai Balaji Nagar 1st Street,Selavoyal,Perambur,13.14587728,80.25071347
4,34, Union Carbide Colony 9th Street,Kodungaiyur,Perambur,13.13782451,80.25137646
4,34, Venkateswara Nagar (Part-I) 2nd Street,Kodungaiyur,Perambur,13.1413439,80.24988687
4,34, Venkateswara Nagar (Part-Ii) 2nd Street,Kodungaiyur,Perambur,13.14175781,80.25362766
4,34, Vijayalakshmi Nagar 1st Street,Selavoyal,Perambur,13.14335289,80.2529919
4,34, SR Nagar 2nd Street,Selavoyal,Perambur,13.14283404,80.25457865
4,34, Binny Nagar 1st Street,Kodungaiyur,Perambur,13.14304754,80.24369057
4,35, G.N.T Road,Erukkanchery,Perambur,13.12463037,80.2463859
4,40, New Vaidyanathan Street (Or) Vaidyanathan Lane,Tondiarpet,Tondiarpet,13.12999752,80.28637707
4,45, Stephenson Lane,Perambur,Perambur,13.11028651,80.25745684
5,58, E.V.R Salai,Vepery,Purasawakkam,13.07990189,80.26069765
5,58, E.V.R Salai,Vepery,Purasawakkam,13.07998556,80.26107067
5,58, Jothi Venkatachalam Salai (Atkinson Road),Vepery,Purasawakkam,13.08211552,80.26384949
5,59, Wallajah Road,Triplicane,Mylapore,13.06604789,80.27513542
5,60, Rajaji Salai,V.O.C nagar,Purasawakkam,13.07751013,80.28789035
5,61, Ethiraj Lane,Egmore,Egmore,13.06645023,80.25745333
5,61, Pantheon Road,Egmore,Egmore,13.0735295,80.2610453
5,63, Biyram Jung Bahadur Street,Mylapore,Mylapore,13.06284489,80.26566597
6,74, Pumping Station Road,Purasawakkam,Purasawakkam,13.09359922,80.24587895
6,75, Chellappa Street,Purasawakkam,Purasawakkam,13.09626982,80.25288736
6,76, C.S.Nagar Park Street,Purasawakkam,Purasawakkam,13.09557424,80.25750454
6,76, Perambur Barracks Road (Veda Vinayagar Salai),Purasawakkam,Purasawakkam,13.09728857,80.25931975
6,77, Basin Elephant Gate Road,Vepery,Purasawakkam,13.09502442,80.26842241
6,64, Anjugam Nagar 4th C/S. Street,Kolathur,Ayanavaram,13.12208928,80.22034034
6,64, Anjugam Nagar 4th C/S. Street,Kolathur,Ayanavaram,13.12230732,80.22104162
6,64, Thiru.Vi.Ka. Street Thenpalani Nagar,Kolathur,Ayanavaram,13.12424373,80.20749982
6,64, Lakshmi Nagar 3rd Street,Kolathur,Ayanavaram,13.12311299,80.20947902
6,64, Jayaram Nagar I Main Road,Kolathur,Ayanavaram,13.12188727,80.21053224
6,64, Thirupathi Nagar I Main Road,Kolathur,Ayanavaram,13.12684086,80.22194546
6,64, Vivek Nagar Iistreet,Kolathur,Ayanavaram,13.12722155,80.21700405
6,64, Girija Nagar West I Street,Kolathur,Ayanavaram,13.12735583,80.2163448
6,65, Mahaveer Nagar Ii Street,Kolathur,Ayanavaram,13.12417676,80.20441365
6,65, Thirumalai Nagar Ii Main Road,Kolathur,Ayanavaram,13.12497781,80.2026869
6,65, P.V.Shanmugam Nagar I Street,Kolathur,Ayanavaram,13.12160346,80.20584576
6,65, Janagiram Reddy Colony Ii Street,Konnur,Ayanavaram,13.11633995,80.20716648
6,65, Rohini Street Rajaji Nagar,Konnur,Ayanavaram,13.11382043,80.21150047
6,65, Senthil Nagar 10th Cross Street,Kolathur,Ayanavaram,13.12128476,80.20241175
6,65, Senthil Nagar 13th Cross Street,Kolathur,Ayanavaram,13.12215393,80.20272259
6,65, R.K. Syndicate Nagar I Street,Kolathur,Ayanavaram,13.12017922,80.20313561
6,65, Selvi Nagar I Street,Ayanavaram,Ayanavaram,13.12492572,80.20648143
6,65, Hussain Colony Ii Street,Kolathur,Ayanavaram,13.12612054,80.20264944
6,66, Jawahar Nagar 2nd Circular Road,Peravallur,Ayanavaram,13.11378432,80.23011859
6,66, Jawahar Nagar 1st Circular Road,Peravallur,Ayanavaram,13.11394073,80.22897645
6,66, Jawahar Nagar 2nd Circular Road,Peravallur,Ayanavaram,13.11538714,80.22852808
6,66, Jawahar Nagar 5th Main Road,Peravallur,Ayanavaram,13.11097603,80.22870538
6,66, Jawahar Nagar 2nd Cross Street,Peravallur,Ayanavaram,13.11212903,80.22867196
6,66, Periyar Nagar 20th Street,Peravallur,Ayanavaram,13.11480394,80.22019907
6,66, Periyar Nagar 15th Street,Peravallur,Ayanavaram,13.11664372,80.22039114
6,66, Periyar Nagar 4th Street,Peravallur,Ayanavaram,13.11458811,80.22634845
6,66, S.R.P. Colony 6th Street,Peravallur,Ayanavaram,13.11821961,80.22452021
6,66, Ramnagar 2nd Main Road,Peravallur,Ayanavaram,13.11930047,80.22797695
6,66, Sakthivel Nagar 2nd Cross Street,Peravallur,Ayanavaram,13.12403308,80.22473145
6,67, SUNDAR RAJA PERUMAL KOIL STREET SOUTH,Siruvallur,Ayanavaram,13.11205998,80.23170908
6,67, Rangasayee Street,Siruvallur,Ayanavaram,13.10935844,80.2348135
6,68, Paper Mills Road,Siruvallur,Ayanavaram,13.11359122,80.23521357
6,68, Kennedy Square 1st Street (North),Sembiam,Perambur,13.12086112,80.23726149
6,68, Gurusamy Street,Sembiam,Perambur,13.11811366,80.23426704
6,68, Pallavan Salai,Peravallur,Ayanavaram,13.12120826,80.23276749
6,68, Thiru-Vi-Ka Nagar (37 Roads),Peravallur,Ayanavaram,13.11830606,80.23263311
6,68, Pallavan Salai,Sembiam,Perambur,13.12244877,80.23898825
6,68, Pallavan Salai,Peravallur,Ayanavaram,13.12186253,80.23386271
6,68, Thiru-Vi-Ka Nagar (37 Roads),Peravallur,Ayanavaram,13.12232995,80.23298285
6,68, Thiru-Vi-Ka Nagar (37 Roads),Peravallur,Ayanavaram,13.12071681,80.2336602
6,69, Anderson Road,Chinna sembarambakkam,Ayanavaram,13.10212031,80.24298094
6,70, DR. AMBEDKAR COLLEGE ROAD,Perambur,Perambur,13.10883156,80.25937442
6,70, DR. AMBEDKAR COLLEGE ROAD,Perambur,Perambur,13.10843534,80.25654528
6,72, Brightons Road,Perambur,Perambur,13.10711393,80.26148732
6,73, Cooks Road,Perambur,Perambur,13.10208496,80.25069553
6,73, New Ferrance Road,Perambur,Perambur,13.10049723,80.25479575
6,73, New Ferrance Road,Perambur,Perambur,13.10281402,80.25678237
6,73, Cooks Road,Perambur,Perambur,13.10201644,80.24991373
6,73, New Ferrance Road,Purasawakkam,Purasawakkam,13.09846105,80.25867817
6,73, Cooks Road,Perambur,Perambur,13.10161403,80.25205881
6,73, Strahans Road,Perambur,Perambur,13.10415937,80.25510361
6,73, Cooks Road,Perambur,Perambur,13.10349311,80.25303082
6,73, Cooks Road,Perambur,Perambur,13.10098806,80.25187151
6,74, Pumping Station Road,Purasawakkam,Purasawakkam,13.09304056,80.24680587
6,74, Pumping Station Road,Purasawakkam,Purasawakkam,13.09274373,80.24687378
6,74, Barrakka Road,Purasawakkam,Purasawakkam,13.09224489,80.24567171
6,74, Barrakka Road,Purasawakkam,Purasawakkam,13.08980118,80.24449308
7,82, NARAYANAN NAGAR,Menambedu,Amabattur,13.1198455,80.17019699
7,82, KARUKKU MAIN ROAD,Pattravakkam,Amabattur,13.11688307,80.17303267
7,82, RED HILLS ROAD,Korattur,Amabattur,13.13149634,80.16659431
7,82, RED HILLS ROAD,Korattur,Amabattur,13.13355841,80.16708538
7,82, Redhills Road,Kakkapallam,Amabattur,13.1345879,80.1772838
7,82, SENTHIL MURUGAN NAGAR,Menambedu,Amabattur,13.128167,80.17026098
7,82, EAST BALAJI NAGAR 6TH CROSS ST,Menambedu,Amabattur,13.1366291,80.1719058
7,83, 61 ST STREET,Korattur,Amabattur,13.11217713,80.18706753
7,83, SUBALAKSHMI 3RD STREET,Korattur,Amabattur,13.11428462,80.19037681
7,83, SASTHA NAGAR,Korattur,Amabattur,13.11632048,80.19831991
7,83, RANGA GARDAN,Korattur,Amabattur,13.12385285,80.20055637
7,83, KANDIGAI STREET,Korattur,Amabattur,13.12463975,80.19273392
7,84, EAST AVENUE,Korattur,Amabattur,13.10188055,80.18606618
7,84, VINAYAGAR KOIL STREET,Korattur,Amabattur,13.0999887,80.17832014
7,84, TNHB IIND STREET,Korattur,Amabattur,13.10699512,80.18555995
7,84, 4 TH STREET,Korattur,Amabattur,13.10343069,80.18488826
7,84, K.R.NAGAR(GOVINDA REDDY ST.),Korattur,Amabattur,13.10530993,80.1809746
7,85, RAILWAY QUARTERS,Ambattur,Amabattur,13.11264664,80.14551759
7,85, RAILWAY QUARTERS,Ambattur,Amabattur,13.11405794,80.14436413
7,85, THIRUVALLUVAR STREET,Ambattur,Amabattur,13.10079765,80.16612172
7,86, THAMARABARANI STREET,Attipattu,Amabattur,13.09306131,80.1444208
7,86, THAMARABARANI STREET,Attipattu,Amabattur,13.09423339,80.14452017
7,86, VANAGARAM ROAD,Attipattu,Amabattur,13.090339,80.16075978
7,86, A.I.E.SOUTH PHASE,Ambattur,Amabattur,13.0951473,80.16965419
7,86, A.I.E.SOUTH PHASE,Ambattur,Amabattur,13.09420735,80.16951102
7,86, T T MATHEW ROAD,Attipattu,Amabattur,13.08045662,80.15994204
7,86, V.G.N.SHANTHI NAGAR.,Ambattur,Amabattur,13.09810124,80.1583634
7,86, V.G.N. NAGAR,Ambattur,Amabattur,13.10116642,80.15568244
7,86, V.G.N. NAGAR,Ambattur,Amabattur,13.0967492,80.15660421
7,86, V.G.N. NAGAR,Attipattu,Amabattur,13.09964012,80.15858114
7,86, V.G.N.SHANTHI NAGAR.,Ambattur,Amabattur,13.09714696,80.15327383
7,86, K.S.R. NAGAR,Ambattur,Amabattur,13.10235702,80.15510647
7,86, MANICKAM PILLAI STREET,Mannurpet,Amabattur,13.10199639,80.17223309
7,88, M G R ROAD,Padi,Amabattur,13.09423841,80.18919611
7,88, M.T.H.ROAD,Padi,Amabattur,13.10028494,80.18909158
7,89, JEEVAN BHIMA NAGAR A.N.W.E.,Padi,Amabattur,13.09134587,80.1905174
7,89, JEEVAN BHIMA NAGAR A.N.W.E.,Padi,Amabattur,13.0908711,80.19137859
7,89, T.S.Krishna Nagar,Padi,Amabattur,13.08752185,80.1853754
7,89," 34TH STREET, TVS COLONY",Padi,Amabattur,13.09127884,80.18857997
7,90," TNHB,ANNA NAGAR WEST EXT.",Padi,Amabattur,13.08699505,80.19340166
7,90, WELCOME COLONY,Padi,Amabattur,13.08908436,80.19317333
7,90, PADI KUPPAM MAIN ROAD,Padi,Amabattur,13.07962195,80.19011351
7,90, WELCOME COLONY,Padi,Amabattur,13.08851925,80.19476732
7,90, WELCOME COLONY,Padi,Amabattur,13.0884355,80.19314172
7,90, WELCOME COLONY,Padi,Amabattur,13.0885627,80.1935866
7,90, SANTHAM COLONY,Padi,Amabattur,13.08804836,80.19579548
7,90, SANTHAM COLONY,Padi,Amabattur,13.0881529,80.19632884
7,90, SANTHAM COLONY,Padi,Amabattur,13.08805188,80.196917
7,90, PADI KUPPAM MAIN ROAD,Padi,Amabattur,13.08270769,80.19179073
7,90, ASIAD COLONY,Padi,Amabattur,13.0890688,80.1980827
7,90, Golden Jublee Flats,Padi,Amabattur,13.08246816,80.19277483
7,90, PADI KUPPAM MAIN ROAD,Padi,Amabattur,13.08368698,80.1918698
7,90, PADI KUPPAM MAIN ROAD,Padi,Amabattur,13.08437186,80.19215328
7,90, COLLECTOR NAGAR 1ST STREET,Padi,Amabattur,13.08686587,80.18880782
7,90, EMRALD FLATS ANNA NAGAR WEST,Padi,Amabattur,13.08608067,80.19700031
7,90, PADI KUPPAM MAIN ROAD,Padi,Amabattur,13.08105922,80.19114258
7,90, WELCOME COLONY,Padi,Amabattur,13.08906341,80.19405281
7,90, WELCOME COLONY,Padi,Amabattur,13.0885518,80.19445113
7,90, GOLDEN JUBILEE FLATS,Padi,Amabattur,13.08278379,80.1922228
7,90, GOLDEN JUBILEE FLATS,Padi,Amabattur,13.08308033,80.19231988
7,90, GOLDEN JUBILEE FLATS,Padi,Amabattur,13.08218979,80.1930373
7,90, GOLDEN JUBILEE FLATS,Padi,Amabattur,13.08396226,80.19321209
7,91, ERI SCHEME 1ST MAIN ROAD,Mogapair,Amabattur,13.07814458,80.18001106
7,91, Jaswanth Nagar,Mogapair,Amabattur,13.08488746,80.16212997
7,91, Jaswanth Nagar,Mogapair,Amabattur,13.08635915,80.16474898
7,91, L.I.G ERI SCHEME 15TH CROSS STREET,Mogapair,Amabattur,13.07487231,80.17845592
7,91," MUGAPAIR ERI SCHEME, CH-37",Mogapair,Amabattur,13.07608975,80.18076226
7,91," MUGAPAIR ERI SCHEME, CH-37",Mogapair,Amabattur,13.07736754,80.18073167
7,91," MUGAPAIR ERI SCHEME, CH-37",Mogapair,Amabattur,13.07583086,80.17513988
7,91, ERI SCHEME 1ST MAIN ROAD,Mogapair,Amabattur,13.07811194,80.17754936
7,91," MUGAPAIR ERI SCHEME, CH-37",Mogapair,Amabattur,13.07580058,80.17956907
7,91, Jaswanth Nagar,Mogapair,Amabattur,13.0833948,80.1634363
7,92, EVEREST COLONY,Mogapair,Amabattur,13.08029494,80.18294582
7,92, VENUGOPALSWAMY STREET,Mogapair,Amabattur,13.08126627,80.17729556
7,92, VGP Nagar,Mogapair,Amabattur,13.08208197,80.17713955
7,92, VEERAMAMUNIVAR SALAI,Mogapair,Amabattur,13.0819346,80.18192577
7,92, CHURCH STREET,Mogapair,Amabattur,13.07878502,80.18110681
7,92, CHURCH STREET,Mogapair,Amabattur,13.07833114,80.18126784
7,93, 4TH BLOCK NAKIRANSALAI 14TH CROSS ST,Mogapair,Amabattur,13.08164866,80.18491282
7,93, RAIL NAGAR,Padi,Amabattur,13.07795539,80.18814465
7,93, O V JOSEPH STREET G G NAGAR,Mogapair,Amabattur,13.07695719,80.18480702
8,94, Sidco Nagar 1st Main Road,Konnur,Ayanavaram,13.10382209,80.20063842
8,94, Sidco Nagar 1st Main Road,Konnur,Ayanavaram,13.1042773,80.20058551
8,94, Sidco Nagar 1st Main Road,Konnur,Ayanavaram,13.10415408,80.19969562
8,94, North Jagannahan Nagar 2nd Main Road,Konnur,Ayanavaram,13.11123969,80.20487018
8,94, Rajamangalam Main Road,Konnur,Ayanavaram,13.1136504,80.20440316
8,94, Sidco Nagar 32nd Street,Konnur,Ayanavaram,13.10661498,80.20235073
8,94, M.T.H.Road,Konnur,Ayanavaram,13.10263773,80.19808872
8,95, Thirumangalam Road,Villivakkam,Aminjikarai,13.10291694,80.20198032
8,95, Thirunagar 11th Street,Villivakkam,Aminjikarai,13.10085662,80.20393527
8,96, Konnur High Road (From 10 To 156 And 230 To 367),Ayanavaram,Ayanavaram,13.09818129,80.23828238
8,96, Konnur High Road,Ayanavaram,Ayanavaram,13.09920752,80.23729641
8,98, Ayanavaram Road,Ayanavaram,Ayanavaram,13.09349296,80.23901242
8,99, H-Block 14th Street,Koyambedu,Aminjikarai,13.08815455,80.20158861
8,99, H-Block 16th Street,Koyambedu,Aminjikarai,13.08979462,80.20164589
8,99, J-Block 10th Street,Koyambedu,Aminjikarai,13.08990176,80.19958253
8,99, Kathiravan Colony,Koyambedu,Aminjikarai,13.08918036,80.2026312
8,99, Ponni Colony Main Road,Koyambedu,Aminjikarai,13.09151692,80.20328644
8,99, Belly Area Main Road,Koyambedu,Aminjikarai,13.09084942,80.20807603
8,99, Belly Area Main Road,Koyambedu,Aminjikarai,13.09074237,80.20921778
8,99, Nvn Nagar 14th Street,Koyambedu,Aminjikarai,13.08409983,80.19814684
8,99, Akr Road,Koyambedu,Aminjikarai,13.07933879,80.19535093
8,99, 15th Main Road,Koyambedu,Aminjikarai,13.0866187,80.2084468
8,99, 15th Main Road,Koyambedu,Aminjikarai,13.08889215,80.20850372
8,99, Nvn Nagar 2nd Street,Koyambedu,Aminjikarai,13.08599424,80.19749696
8,99, Nvn Nagar 2nd Street,Koyambedu,Aminjikarai,13.08598764,80.19777958
8,99, 15th Main Road,Koyambedu,Aminjikarai,13.08709143,80.20321512
8,100, Ad Block 3rd Street,Aminjikarai,Aminjikarai,13.08353391,80.20908187
8,100, Tower Park Road,Aminjikarai,Aminjikarai,13.08671233,80.2141834
8,100, 7th Main Road Tnscb Tenement Road,Aminjikarai,Aminjikarai,13.07887654,80.20960725
8,100, 9th Main Road,Aminjikarai,Aminjikarai,13.07897238,80.20970951
8,100, 3rd Main Road,Aminjikarai,Aminjikarai,13.08319894,80.21516266
8,100, Ae Block 1st Street,Aminjikarai,Aminjikarai,13.08350212,80.20675328
8,100, Al Block 2nd Street,Aminjikarai,Aminjikarai,13.08181133,80.20408986
8,100, 7th Main Road Tnscb Tenement Road,Aminjikarai,Aminjikarai,13.07900636,80.20713219
8,100, 14th Main Road,Aminjikarai,Aminjikarai,13.08022853,80.20399964
8,100, 7th Main Road,Aminjikarai,Aminjikarai,13.07901315,80.20534022
8,100, 7th Main Road Tnscb Tenement Road,Aminjikarai,Aminjikarai,13.07915187,80.20424886
8,101, 2ND MAIN ROAD,Chinnakudal,Aminjikarai,13.08138569,80.22251833
8,101, 2ND MAIN ROAD,Chinnakudal,Aminjikarai,13.08182639,80.2225381
8,101, Crescent Road,Chinnakudal,Aminjikarai,13.08153286,80.22039897
8,101, C- Block 6th Street,Chinnakudal,Aminjikarai,13.08401851,80.22373127
8,101, K-Block 13th Street,Ayanavaram,Ayanavaram,13.09059232,80.22160601
8,101, 6th Avenue Road,Ayanavaram,Ayanavaram,13.09176418,80.22117916
8,101, N- Block 24th Street,Ayanavaram,Ayanavaram,13.09338558,80.22234236
8,101, O- Block 37th Street,Ayanavaram,Ayanavaram,13.0936888,80.22323456
8,101, Shenoy Nagar 1st Main Road,Periyakudal,Aminjikarai,13.07846727,80.22229361
8,102, L- Block 19th Street,Ayanavaram,Ayanavaram,13.09075367,80.22499385
8,102, Pulla Avenue,Aminjikarai,Aminjikarai,13.0786277,80.22509378
8,102, Pulla Avenue,Aminjikarai,Aminjikarai,13.08102221,80.2258513
8,102, Second Avenue Exnt. Road,Periyakudal,Aminjikarai,13.08682371,80.22548895
8,102, Big Street,Egmore,Egmore,13.0839984,80.23190016
8,103, Prof. Subramaniam St,Egmore,Egmore,13.07786706,80.23988773
8,103, Kilpauk Garden Rd,Egmore,Egmore,13.08264793,80.24136358
8,103, Evr Lane,Egmore,Egmore,13.07648989,80.24596205
8,103, Periyar E.V.R. Salai,Egmore,Egmore,13.07630032,80.2343514
8,104, Brickklin Road,Purasawakkam,Purasawakkam,13.08744145,80.25027114
8,104, Brickklin Road,Purasawakkam,Purasawakkam,13.08882552,80.24837289
8,105, Kalki Nagar Main Road,Arumbakkam,Aminjikarai,13.07250863,80.21499136
8,105, Kalki Nagar 2nd Street,Arumbakkam,Aminjikarai,13.07185455,80.21440075
8,106, Nelson Manickam Road,Vada Agaram,Aminjikarai,13.07418886,80.22135805
8,106, Metal Factory Road,Vada Agaram,Aminjikarai,13.06918183,80.22261505
8,106, Nelson Manickam Road,Vada Agaram,Aminjikarai,13.07278331,80.22128332
8,106, Nelson Manickam Road,Vada Agaram,Aminjikarai,13.07074695,80.22419097
8,106, Nelson Manickam Road,Vada Agaram,Aminjikarai,13.07038035,80.22406326
8,106, Nelson Manickam Road,Vada Agaram,Aminjikarai,13.07134728,80.22165034
8,106, Nelson Manickam Road,Vada Agaram,Aminjikarai,13.07147379,80.22196435
8,107, Venkatasamy Street,Egmore,Egmore,13.07169649,80.24657434
8,107, Mc Nichols Road (Zonal Office Side),Egmore,Egmore,13.07572243,80.23864269
9,112, Trustpuram 6th Cross Street,Puliyur,Egmore,13.05683155,80.22222197
9,112, Trustpuram 10th Street,Puliyur,Egmore,13.05795086,80.22350405
9,112, Trustpuram 4th Cross Street,Puliyur,Egmore,13.05529875,80.22490602
9,112, Puliyur 1st Main Road,Puliyur,Egmore,13.05570412,80.22573179
9,117, Chari Street,Thiyagaraya nagar,Guindy,13.04880665,80.23202259
9,118, Venus Colony Iind Street,Mylapore,Mylapore,13.04122508,80.25264245
9,119, C.I.T. Colony 5th Cross Street,Mylapore,Mylapore,13.04043862,80.26047119
9,123, Luz Church Road,Mylapore,Mylapore,13.03552991,80.26331628
9,124, Ranganathapuram,Mylapore,Mylapore,13.03745851,80.27071755
9,125, Nainar Salai,Mylapore,Mylapore,13.04249451,80.27370177
9,125, Santhome High Road,Mylapore,Mylapore,13.03717048,80.27829824
9,126, 2nd Trust Main Road,Mylapore,Mylapore,13.02574135,80.27267306
9,110, Harrington Road,Nungambakkam,Egmore,13.06892569,80.24107183
9,111, Binny Road,Nungambakkam,Egmore,13.06219742,80.26013274
9,111, Whites Road (Osr Land),Triplicane,Mylapore,13.05544258,80.2589101
9,111, College Lane,Nungambakkam,Egmore,13.06634457,80.25104864
9,111, College Road,Nungambakkam,Egmore,13.06746063,80.2502418
9,111, College Road,Nungambakkam,Egmore,13.06752081,80.24916652
9,111, Haddows Road,Nungambakkam,Egmore,13.06321843,80.24852527
9,111, Safee Mohamed Road,Nungambakkam,Egmore,13.06099768,80.25298174
9,111, Smith Lane,Triplicane,Mylapore,13.06017813,80.26194315
9,111, Club House Road,Triplicane,Mylapore,13.05945901,80.26414104
9,111, Pycrofts Garden Road,Nungambakkam,Egmore,13.06337036,80.24906479
9,111, Anna Salai,Mylapore,Mylapore,13.05330067,80.24991917
9,111, Haddows Road,Nungambakkam,Egmore,13.0653423,80.2479199
9,111, Pathari Road,Nungambakkam,Egmore,13.05913948,80.25573242
9,112, Choolai Medu High Road,Puliyur,Egmore,13.05725207,80.22931416
9,112, Railway Boarder Road,Puliyur,Egmore,13.06513494,80.23235589
10,127, Ani Street - Chinmaya Nagar Stage Ii,Aminjikarai,Aminjikarai,13.06058461,80.19344146
10,127, Mullai Street - Brindavan Nagar,Koyambedu,Aminjikarai,13.06446404,80.19590984
10,128, Arcot Road,Virugambakkam,Mambalam,13.04638024,80.1898875
10,128, Vembuliamman Koil Street,Virugambakkam,Mambalam,13.04569903,80.18950879
10,128, Co-Op Society Colony,Virugambakkam,Mambalam,13.05122859,80.19429643
10,128, South Street - Elango Nagar,Virugambakkam,Mambalam,13.0522509,80.19054637
10,128, 1 Cross Street - Crr Puram Phase 1,Virugambakkam,Mambalam,13.05160395,80.19261334
10,128, Main Road - Tarachand Nagar,Virugambakkam,Mambalam,13.05497071,80.19443953
10,128, 5 Street - New Colony,Virugambakkam,Mambalam,13.04945773,80.1877143
10,128, 2nd Street - Lakshmi Nagar,Virugambakkam,Mambalam,13.05052241,80.18661139
10,128, Vembuliamman Koil Street,Virugambakkam,Mambalam,13.04499936,80.18998088
10,128, Vembuliamman Koil Street,Virugambakkam,Mambalam,13.04434712,80.18968648
10,128, Lambert Nagar Ii Main Road,Virugambakkam,Mambalam,13.04459017,80.18728141
10,128, Vembuliamman Koil Street,Virugambakkam,Mambalam,13.04391603,80.18987611
10,129, Arcot Salai,Saligramam,Mambalam,13.04907618,80.20574294
10,129, Arcot Salai,Mambalam,Mambalam,13.04558304,80.20056081
10,129, Arcot Salai,Saligramam,Mambalam,13.04721819,80.20071909
10,129, Arcot Salai,Saligramam,Mambalam,13.0462879,80.20063658
10,129, Abusali Street,Virugambakkam,Mambalam,13.0499636,80.19868776
10,129, Nsk Lane,Virugambakkam,Mambalam,13.04894283,80.19684639
10,129, Arcot Salai,Mambalam,Mambalam,13.04708981,80.20024545
10,129, Kumaran Colony 4th Street,Saligramam,Mambalam,13.05326906,80.20582382
10,129, Arcot Salai,Saligramam,Mambalam,13.04864064,80.20105107
10,129, Thillaiadi Valliammai Street,Saligramam,Mambalam,13.05549957,80.20306947
10,129, Arunachalam Street,Saligramam,Mambalam,13.04927011,80.20365279
10,129, Muthukumarappa Street (From Arcot Road To Dead End),Mambalam,Mambalam,13.04756126,80.19993936
10,129, Muthukumarappa Street (From Arcot Road To Dead End),Saligramam,Mambalam,13.04855938,80.19975848
10,129, Vivekandanar Street,Saligramam,Mambalam,13.05281771,80.19851384
10,129, State Bank Colony 1st Street,Saligramam,Mambalam,13.05444924,80.19872318
10,129, Velayutham Colony 1st Main Road,Saligramam,Mambalam,13.05072471,80.20140239
10,129, Kaveri Rangan Nagar Pillaiyar Koil Street,Saligramam,Mambalam,13.05366409,80.20090119
10,129, Devaraj Nagar Navalar High Road,Saligramam,Mambalam,13.0594148,80.20138638
10,129, Mullai Street,Saligramam,Mambalam,13.06124929,80.20456552
10,129, 2nd Street - Annamalai Colony,Virugambakkam,Mambalam,13.05103141,80.19845888
10,130, Amman Koil Street (West),Saligramam,Mambalam,13.05218026,80.21045878
10,130, Ponnammal Street,Saligramam,Mambalam,13.05214186,80.20937699
10,130, N.S.K Salai,Puliyur,Egmore,13.05039113,80.21124255
10,131, K.K.Nagar Ii Sector 11th Street,Kodambakkam,Mambalam,13.0393233,80.20335928
10,131, 6th Sector 28th Street,Kodambakkam,Mambalam,13.03791792,80.20021444
10,131, P.T. Rajan Road,Kodambakkam,Mambalam,13.04172375,80.20493237
10,131, P.T. Rajan Road,Kodambakkam,Mambalam,13.04255651,80.20530828
10,131, Bobbiliraja Salai,Kodambakkam,Mambalam,13.04318663,80.20780632
10,131, 13th Sector 83rd Street,Kodambakkam,Mambalam,13.04007124,80.2064971
10,131, 13th Sector 83rd Street,Kodambakkam,Mambalam,13.039972,80.20717677
10,131, Vijayaraghavapuram 1st Street,Kodambakkam,Mambalam,13.04571548,80.20325343
10,131, Banumathi Krishna Street Bahrani Colony,Kodambakkam,Mambalam,13.04611639,80.20210022
10,131, Model House 2nd Street,Kodambakkam,Mambalam,13.04100494,80.20410192
10,131, Vijayaraghavapuram 1st Street,Saligramam,Mambalam,13.04719783,80.20367988
10,137, 61st Street 10th Sector,Virugambakkam,Mambalam,13.04308919,80.19531388
10,137, 67th Street 11th Sector,Virugambakkam,Mambalam,13.04061002,80.1949353
10,137, 41st Street 8th Sector,Virugambakkam,Mambalam,13.04018078,80.19798328
10,137, 74th Street 12th Sector,Virugambakkam,Mambalam,13.03871389,80.1946136
10,137, 15th Street 4th Sector,Virugambakkam,Mambalam,13.04230678,80.20086356
10,138, Ashok Pillar Road,Kodambakkam,Mambalam,13.03540344,80.20649407
10,138, S.M.Block - V.M.Balakrishnan Street,Kodambakkam,Mambalam,13.03077602,80.20208136
10,139, R.R.Colony Ii Cross Street,Kodambakkam,Mambalam,13.0281643,80.21553283
10,139, R.V.Nagar 69th Street,Kodambakkam,Mambalam,13.02982204,80.21390904
10,142, Jones Road,Kodambakkam,Mambalam,13.02647727,80.21705787
10,142, Jones Road,Kodambakkam,Mambalam,13.02681928,80.2165201
10,142, Jones Road Lane (South),Kodambakkam,Mambalam,13.02478137,80.21693996
11,143, 7TH MAIN ROAD,Nolambur,Maduravoyal,13.07880102,80.16220128
11,143, 3RD MAIN ROAD,Nolambur,Maduravoyal,13.08150746,80.16309436
11,143, 9TH MAIN ROAD,Nolambur,Maduravoyal,13.07730901,80.16823905
11,143, 7TH CROSS STREET,Nolambur,Maduravoyal,13.07671403,80.17247972
11,143, 3RD CROSS STREET,Nolambur,Maduravoyal,13.07786206,80.16993396
11,143, 6TH MAIN ROAD,Nolambur,Maduravoyal,13.07888226,80.16472492
11,143, 13TH CROSS STREET,Nolambur,Maduravoyal,13.07552552,80.17354417
11,143, 9TH MAIN ROAD,Maduravoyal,Maduravoyal,13.07757034,80.16671165
11,143, CHANNEL ROAD,Nolambur,Maduravoyal,13.07650708,80.16480456
11,143, 13TH CROSS STREET,Nolambur,Maduravoyal,13.07834598,80.16365651
11,143, 1ST MAIN ROAD,Nolambur,Maduravoyal,13.08182005,80.16525926
11,143, 6TH CROSS STREET,Nolambur,Maduravoyal,13.08297484,80.16378473
11,143, S&P GARDEN,Nolambur,Maduravoyal,13.06699891,80.16392489
11,143, MOGAPPAIR WEST MAIN ROAD,Nolambur,Maduravoyal,13.08021878,80.16215594
11,143, 2ND MAIN ROAD,Nolambur,Maduravoyal,13.08300449,80.16328212
11,143, SAKTHI NAGAR,Nolambur,Maduravoyal,13.07229172,80.16685884
11,143, VOC STREET,Nolambur,Maduravoyal,13.07346774,80.16259647
11,143, S&P GARDEN,Nolambur,Maduravoyal,13.06908113,80.16394013
11,143, 5TH BLOCK,Nolambur,Maduravoyal,13.07926434,80.16826911
11,143, MCK NAGAR,Nolambur,Maduravoyal,13.0673144,80.16174917
11,143, VGN MINERVA,Nolambur,Maduravoyal,13.07229219,80.16453916
11,143, VGN MINERVA,Nolambur,Maduravoyal,13.07204309,80.16563859
11,143, PHASE-II,Nolambur,Maduravoyal,13.07811007,80.16206584
11,143, TANU ROAD,Nolambur,Maduravoyal,13.07457193,80.16868356
11,143, 4TH MAIN ROAD,Nolambur,Maduravoyal,13.07892639,80.16519551
11,143, SRIRAM NAGAR,Nolambur,Maduravoyal,13.0737329,80.16783505
11,143, DABC PHASE III,Nolambur,Maduravoyal,13.06954734,80.16662678
11,143, DABC-MITHILAM,Nolambur,Maduravoyal,13.06925489,80.16739011
11,143, DABC PHASE III,Nolambur,Maduravoyal,13.06970714,80.16704512
11,143, DABC PHASE III,Nolambur,Maduravoyal,13.06974865,80.16665423
11,143, DABC PHASE III,Maduravoyal,Maduravoyal,13.07218902,80.16827891
11,143, SAKTHI NAGAR,Maduravoyal,Maduravoyal,13.07148796,80.16814046
11,143, SRIRAM NAGAR,Maduravoyal,Maduravoyal,13.07226768,80.16772072
11,143, DABC AYSHVARIAM ROAD,Nolambur,Maduravoyal,13.07446127,80.164762
11,143, DABC AVENUE,Nolambur,Maduravoyal,13.07600439,80.16503193
11,143, 4TH MAIN ROAD,Nolambur,Maduravoyal,13.07874563,80.16470537
11,143, GURUSWAMY STREET,Nolambur,Maduravoyal,13.07385147,80.16442256
11,143, GURUSWAMY STREET,Nolambur,Maduravoyal,13.07361689,80.16406817
11,143, VGN MINERVA,Nolambur,Maduravoyal,13.07222699,80.16330207
11,143, VGN MINERVA,Nolambur,Maduravoyal,13.07198814,80.16280092
11,143, VGN MINERVA,Nolambur,Maduravoyal,13.06951086,80.1630431
11,143, ANDAL STREET,Nolambur,Maduravoyal,13.07460314,80.16184661
11,143, UNION ROAD,Nolambur,Maduravoyal,13.07454497,80.17420299
11,143, GANGAI AMMAN NAGAR,Nolambur,Maduravoyal,13.07175674,80.17623669
11,143, PERUMAL KOIL STREET,Nolambur,Maduravoyal,13.06765158,80.17007702
11,143, PHASE-I,Nolambur,Maduravoyal,13.08191993,80.16186769
11,143, SIVAN KOIL STREET,Nolambur,Maduravoyal,13.0713485,80.16894215
11,143, 5TH MAIN ROAD,Nolambur,Maduravoyal,13.0793428,80.16318954
11,143, 4TH MAIN ROAD,Nolambur,Maduravoyal,13.07948313,80.16517174
11,143, 27TH CROSS STREET,Nolambur,Maduravoyal,13.07904861,80.16564739
11,143, PHASE-II,Nolambur,Maduravoyal,13.07586433,80.17163413
11,143, SAKTHI NAGAR,Nolambur,Maduravoyal,13.07225143,80.16732343
11,143, S&P GARDEN,Nolambur,Maduravoyal,13.06664535,80.16303762
11,143, VGN MINERVA,Nolambur,Maduravoyal,13.07185854,80.16540101
11,143, ANNAMALAI AVENUE,Nolambur,Maduravoyal,13.07079485,80.17183246
11,143, ANNAMALAI AVENUE,Nolambur,Maduravoyal,13.07302138,80.17021652
11,144, M.M.D.A COLONY,Maduravoyal,Maduravoyal,13.05883264,80.17700692
11,144, VIP AMUTHA NAGAR 2ND PRADANA SALAI,Maduravoyal,Maduravoyal,13.06968373,80.18019059
11,144, VGP Amutha Nagar 3rd Street,Maduravoyal,Maduravoyal,13.07075327,80.17897428
11,144, POOVAI HIGH ROAD 1ST PRADANA SALAI,Maduravoyal,Maduravoyal,13.06712596,80.17625767
11,145, ARULMIGHU MEENAKSHI AMMAN NAGAR,Nerkundram,Maduravoyal,13.06727967,80.18679638
11,145, P.H.ROAD,Nerkundram,Maduravoyal,13.07111964,80.18187424
11,145, NEW COLONY,Nerkundram,Maduravoyal,13.06741326,80.18679903
11,146, METRO NAGAR 4TH MAIN SALAI,Maduravoyal,Maduravoyal,13.04364631,80.16186034
11,147, ARCOT ROAD,Maduravoyal,Maduravoyal,13.03856454,80.16581618
11,147, Bharathi Naga 1st Cross Street,Maduravoyal,Maduravoyal,13.05141214,80.17237685
11,147, GANDHI NAGAR 8TH STREET,Maduravoyal,Maduravoyal,13.05416495,80.1776829
11,147, GANGA NAGAR 6TH STREET,Maduravoyal,Maduravoyal,13.05332221,80.1767473
11,148, KAMARAJAR SALAI,Nerkundram,Maduravoyal,13.05535373,80.18778843
11,148, KAMARAJAR SALAI,Nerkundram,Maduravoyal,13.05652845,80.18618896
11,148, NESAMMAL NAGAR ANNEXE,Nerkundram,Maduravoyal,13.05975668,80.18272827
11,149, RADHAKRISHANAN SALAI,Valasaravakkam,Maduravoyal,13.04642616,80.18142688
11,149, BRINDHAVAN NAGAR,Valasaravakkam,Maduravoyal,13.04481274,80.17931546
11,149, NEITHAL STREET,Valasaravakkam,Maduravoyal,13.04517127,80.18075315
11,149, TAGORE STREET,Valasaravakkam,Maduravoyal,13.04946487,80.18263346
11,149, ARCOT ROAD,Valasaravakkam,Maduravoyal,13.04296571,80.18080965
11,149, PALANIAPPA NAGAR,Valasaravakkam,Maduravoyal,13.04599157,80.18254774
11,150, KARAMBAKKAM 1ST STREET,Karambakkam,Maduravoyal,13.03686024,80.15679175
11,150, SUBAGIRI NAGAR 1ST STREET,Thandalam,Maduravoyal,13.04885932,80.14345962
11,150, MAHARISHI AVENE EXTN,Sivabootham,Maduravoyal,13.05602084,80.15287979
11,150, PONNI NAGAR PONNIAMMAN KOIL STREET,Karambakkam,Maduravoyal,13.03824444,80.1538617
11,150, THILAGAR STREET,Thandalam,Maduravoyal,13.0460633,80.13585622
11,150, SRI PARASNATH NAGAR,Thandalam,Maduravoyal,13.04719206,80.13632304
11,150, PARK STREET,Thandalam,Maduravoyal,13.04573519,80.13771035
11,150, MOORTHI NAGAR IIND STREET,Chettiyar Agaram,Maduravoyal,13.04737117,80.14384839
11,151, MOUNT POONAMALLEE ROAD,Porur,Maduravoyal,13.02996783,80.16867468
11,151, MOUNT POONAMALLEE ROAD,Porur,Maduravoyal,13.03194037,80.16461612
11,151, LAKSHMI NAGAR 40 FEET MAIN ROAD,Porur,Maduravoyal,13.03710718,80.16428681
11,151, CHINNA PORUR ANNA SALAI,Porur,Maduravoyal,13.03446672,80.16912359
11,152, BHARATHI COLONY,Valasaravakkam,Maduravoyal,13.04028163,80.18726241
11,153, UDAYA NAGAR MAIN ROAD,Porur,Maduravoyal,13.02547919,80.15825916
11,153, KANNIAPPAN SALAI,Porur,Maduravoyal,13.02629512,80.15566656
11,154, KURUNJI NAGAR 3RD STREET,Ramapuram,Maduravoyal,13.03168941,80.17509048
11,155, KALASANTHAMMAN KOIL STREET,Ramapuram,Maduravoyal,13.02530678,80.18847153
11,155, AMMAN NAGAR 1ST MAIN ROAD,Ramapuram,Maduravoyal,13.0257031,80.1891994
11,155, THIRUVALLUVAR SALAI,Ramapuram,Maduravoyal,13.02508068,80.18331938
11,155, RAYALA NAGAR 1ST MAIN ROAD,Ramapuram,Maduravoyal,13.02891738,80.18439854
11,155, ALAGAPURI NAGAR,Ramapuram,Maduravoyal,13.0274099,80.18224785
11,155, KALASATHAMMAN KOIL STREET,Ramapuram,Maduravoyal,13.0244637,80.18535219
12,156, RAMAMOORTHI AVENUE,Madhanandapuram,Alandur,13.01423453,80.15625235
12,156, LAVENDAR STREET,Madhanandapuram,Alandur,13.01439346,80.15370496
12,156, KALAIMAGAL STREET,Mugalivakkam,Alandur,13.01552392,80.15988709
12,156, E.V.P.RAJESHWARI AVENUE,Madhanandapuram,Alandur,13.01805288,80.15438572
12,156, MADHA NAGAR MAIN ROAD,Madhanandapuram,Alandur,13.0192574,80.14813466
12,156, ANNAI VELANKANNI NAGAR PHASEÂ¿ II MAIN ROAD,Mugalivakkam,Alandur,13.02047826,80.16027891
12,156, SUBBAIYA NAGAR,Madhanandapuram,Alandur,13.02109997,80.15371497
12,156, DEVADOSS STREET,Mugalivakkam,Alandur,13.02164363,80.15744443
12,156, SABARI NAGAR MAIN ROAD,Mugalivakkam,Alandur,13.024773,80.16928473
12,156, SABARI NAGAR MAIN ROAD,Mugalivakkam,Alandur,13.02430935,80.17090493
12,156, RAMACHANDRA STREET,Madhanandapuram,Alandur,13.02259301,80.15485817
12,156, RAJRAJESHWARI NAGAR,Madhanandapuram,Alandur,13.02308036,80.15803547
12,156, RAJRAJESHWARI NAGAR,Mugalivakkam,Alandur,13.0234206,80.15840861
12,156, MADANANTHAPURAM,Madhanandapuram,Alandur,13.02260863,80.14756515
12,156, C.R.R.PURAM,Mugalivakkam,Alandur,13.01701664,80.16915532
12,156, C.R.R.PURAM,Mugalivakkam,Alandur,13.01693725,80.17165527
12,157, RIVER VIEW COLONY NARMATHA STREET,Manappakkam,Alandur,13.01376448,80.17981805
12,157, RIVER VIEW COLONY KRISHNA STREET,Manappakkam,Alandur,13.01119839,80.17877886
12,157, BHEL NAGAR 4TH CROSS STREET,Manappakkam,Alandur,13.01352788,80.16616778
12,157, KAVIYA GARDEN,Manappakkam,Alandur,13.01381468,80.16385778
12,157, MACRO MARVAL MAIN SALAI,Manappakkam,Alandur,13.01149222,80.16416029
12,157, RIVER VIEW AVENUE ROAD,Manappakkam,Alandur,13.01464336,80.18144934
12,157, ARCOT ROAD MAIN ROAD,Manappakkam,Alandur,13.01608833,80.18036633
12,157, MICRO MARVEL RIVER VIEW COUNTY,Manappakkam,Alandur,13.00659145,80.1644721
12,157, SETHU LAKSHMI AVENUE,Manappakkam,Alandur,13.01893314,80.18162176
12,158, M.G.R. NAGAR,Nandambakkam,Alandur,13.0199443,80.1875855
12,162, NOBEL 1ST STREET,Alandur,Alandur,12.99491261,80.18940086
12,164, NANGANALLUR 29TH STREET,Nanganallur,Alandur,12.98498521,80.18984669
12,164, NEHRU STREET,Pazhavandhangal,Alandur,12.98779275,80.18398145
12,167, SIP COLONY,Thalakanacheri,Alandur,12.97212695,80.18639171
13,177, T.N.H.B 4th Street,Velachery,Velachery,12.99247647,80.21227402
13,177, Andal Nagar 2nd Main Road,Velachery,Velachery,12.98016556,80.2072312
13,177, Mahalakshmi Nagar 1st Cross St,Velachery,Velachery,12.98466389,80.20475525
13,177, Shawalace Colony 2nd Street,Velachery,Velachery,12.98709227,80.20477186
13,177, Ramakrishna Nagar 3rd Main Road,Velachery,Velachery,12.98699413,80.21212811
13,177, Kakkan Nagar 3rd Cross Street,Velachery,Velachery,12.99097171,80.20659158
13,179, Vgp Selva Nagar 1st Main Road,Velachery,Velachery,12.97111069,80.22145271
13,179, Ramagiri 2nd Street,Velachery,Velachery,12.98057442,80.23099518
13,180, L B Road,Tharamani,Velachery,12.98154053,80.25300176
13,180, L B Road,Thiruvanmiyur,Velachery,12.98534494,80.25519201
13,180, L B Road,Thiruvanmiyur,Velachery,12.98453993,80.25501443
13,180, L B Road,Thiruvanmiyur,Velachery,12.9829949,80.2545908
13,180, L B Road,Thiruvanmiyur,Velachery,12.98350586,80.25474671
13,180, Cpt Road,Tharamani,Velachery,12.99227957,80.2448452
13,180, Vilayattu Vinayagar Koil Street,Tharamani,Velachery,12.98578683,80.24687984
13,180, Vilayattu Vinayagar Koil Street,Tharamani,Velachery,12.98500709,80.24686823
13,180, Vilayattu Vinayagar Koil Street,Tharamani,Velachery,12.98390785,80.24686727
13,180, Kamaraj Nagar 4th (W) Street,Thiruvanmiyur,Velachery,12.98547329,80.2539057
13,180, Kamaraj Nagar 13th West Street,Thiruvanmiyur,Velachery,12.98331143,80.25403796
13,180, Kamaraj Nagar 2nd (W) Street,Thiruvanmiyur,Velachery,12.98714516,80.25397699
13,180, Nehru Street Kanagam,Tharamani,Velachery,12.99472105,80.24298493
13,180, Vilayattu Vinayagar Koil Street,Tharamani,Velachery,12.98604344,80.2489971
13,181, Tiger Varathachari Road,Thiruvanmiyur,Velachery,12.99479651,80.26839965
13,181, 29th Cross Street,Thiruvanmiyur,Velachery,12.99513692,80.26660456
13,181, Cge Colony 1st Street,Thiruvanmiyur,Velachery,12.98527892,80.26402452
13,181, Cge Colony 1st Street,Velachery,Velachery,12.98509261,80.26307402
13,181, Sivasundaram Avenue 2nd Street,Thiruvanmiyur,Velachery,12.9894985,80.25825327
13,181, Yamuna Street,Velachery,Velachery,12.99012767,80.26629506
13,181, Sivakamipuram 2nd Street,Velachery,Velachery,12.99458205,80.25799109
13,181, Rukumani Road,Velachery,Velachery,12.99468596,80.26558952
13,181, Cge Quarters 2nd Street,Thiruvanmiyur,Velachery,12.98935303,80.26684003
13,181, Cge Quarters 4th Street,Thiruvanmiyur,Velachery,12.98921292,80.26751571
13,181, M.G.R Street,Thiruvanmiyur,Velachery,12.99402783,80.26292264
13,181, Gangai Street,Thiruvanmiyur,Velachery,12.99102493,80.26846042
13,182, Thiruvalluvar Nagar 1st Avenue,Thiruvanmiyur,Velachery,12.97787501,80.2606632
13,182, Thiruvalluvar Nagar 44th Cross Street,Thiruvanmiyur,Velachery,12.97653755,80.26084185
13,182, Thiruvalluvar Nagar 7th Cross Street,Thiruvanmiyur,Velachery,12.97902727,80.26215226
13,182, Thiruvalluvar Nagar 7th Cross Street,Thiruvanmiyur,Velachery,12.97866806,80.26257573
13,182, Thiruvalluvar Nagar 6th Main Road,Thiruvanmiyur,Velachery,12.97643793,80.26317467
13,182, Thiruvalluvar Nagar 6th Main Road,Thiruvanmiyur,Velachery,12.97631609,80.26476274
13,182, Thiruvalluvar Nagar 11th Cross Street,Thiruvanmiyur,Velachery,12.97813773,80.26358754
13,182, Thiruvalluvar Nagar 43rd Cross Street,Thiruvanmiyur,Velachery,12.97622968,80.26163592
13,182, Thiruvalluvar Nagar 7th Main Road,Thiruvanmiyur,Velachery,12.97555868,80.26075916
13,182, Kannappa Nagar Extn,Thiruvanmiyur,Velachery,12.97555442,80.25529531
13,182, Kannappa Nagar Extn,Thiruvanmiyur,Velachery,12.97394778,80.26443856
13,170, Mount Road,Adyar,Guindy,13.01568964,80.22471442
13,170, Mount Road,Adyar,Guindy,13.01557836,80.22277321
13,170, Jawaharlal Nehru Road,Ekkathuthangal,Guindy,13.01249241,80.20259588
13,170, Jawaharlal Nehru Road,Ekkathuthangal,Guindy,13.01526077,80.20458527
13,172, Ponni Amman Koil Street,Kottur,Guindy,13.0182653,80.2415958
13,172, River View Road,Adyar,Guindy,13.02270708,80.24532006
13,172, Lake View Road,Kottur,Guindy,13.01417862,80.2442821
13,172, Kotturpuram 3rd Main Road,Kottur,Guindy,13.02554772,80.24151716
13,172, Kotturpuram 3rd Main Road,Kottur,Guindy,13.02551254,80.24125721
13,172, Kottur Garden I Cross Street,Kottur,Guindy,13.02077198,80.24260037
13,172, Lake View Road,Kottur,Guindy,13.01379046,80.24447091
13,172, Kotturpuram 2nd Main Road,Kottur,Guindy,13.02432249,80.24290211
13,172, Kotturpuram 2nd Main Road,Kottur,Guindy,13.02518768,80.24308931
13,172, River View Road,Kottur,Guindy,13.0239247,80.24476452
13,172, Kottur Garden Iv Main Road,Kottur,Guindy,13.0199601,80.24475456
13,172, Lock Street,Kottur,Guindy,13.01935378,80.24638247
13,172, Kottur Garden Iv Main Road,Kottur,Guindy,13.01970311,80.24312605
13,172, Dhandayuthapani Nagar Cross Street,Kottur,Guindy,13.02329549,80.24067537
13,172, Ambadi Road,Kottur,Guindy,13.02061288,80.24095956
13,173, R.K. Mutt Road,Mylapore,Mylapore,13.01953331,80.26235071
13,173, Kamaraj Salai,Mylapore,Mylapore,13.02317333,80.25916376
13,173, Krishna Puri Main Road,Mylapore,Mylapore,13.02301056,80.25753046
13,173, Kamaraj Salai,Mylapore,Mylapore,13.02312444,80.25855251
13,173," Sathya Dev Avenue Extn.,",Mylapore,Mylapore,13.01652178,80.2716125
13,173, Sathyadev Avenue,Mylapore,Mylapore,13.0180074,80.27327346
13,173, Vasantha Avenue,Mylapore,Mylapore,13.01838415,80.27217117
13,173, May Flower Garden,Mylapore,Mylapore,13.02160181,80.26051196
13,173, M.R.C. Nagar Main Road,Mylapore,Mylapore,13.01961785,80.27049739
13,173," M.R.C. Nagar Extn.,",Mylapore,Mylapore,13.01998595,80.27256537
13,173, P.S.Kumarasamy Raja Salai,Mylapore,Mylapore,13.02115866,80.2528466
13,173, P.S.Kumarasamy Raja Salai,Mylapore,Mylapore,13.02080092,80.25292604
13,173, P.S.Kumarasamy Raja Salai,Mylapore,Mylapore,13.01862677,80.26108113
13,173, Greenways Road (Or) Dr.D.G.S.Dhinakaran Salai,Mylapore,Mylapore,13.02092287,80.27001016
13,173, R.K. Mutt Road,Mylapore,Mylapore,13.02079099,80.26290604
13,173, Park View Street,Mylapore,Mylapore,13.02242776,80.25841146
13,174, Secretariat Colony,Velachery,Velachery,12.99706158,80.20855851
13,174, Sankaran Avenue 3rd Street,Velachery,Velachery,12.99069873,80.21767903
13,174, Race Cource Road,Velachery,Velachery,13.00582643,80.21311556
13,174, Velachery Main Road,Velachery,Velachery,13.00290788,80.21965894
13,174, Velachery Main Road,Velachery,Velachery,12.98936962,80.22307273
13,175, Indira Nagar 4th Cross Street,Kalikundram,Velachery,12.99854284,80.25246728
13,175, Venkatarathinam Nagar Main Road,Pallipattu,Velachery,13.00027835,80.25161955
13,175, Indira Nagar 7th Cross Street,Kalikundram,Velachery,12.99779221,80.25077607
13,175, Indira Nagar 26th Cross St,Velachery,Velachery,12.99235671,80.2541134
13,176, Sastri Nagar 14th Cross Street,Urur,Velachery,12.99990576,80.26142684
13,176, Durgabai Deshmukh Road,Urur,Velachery,13.00767939,80.2590303
13,176, Durgabai Deshmukh Road,Urur,Velachery,13.01057359,80.25938322
13,176, Besant Nagar 21st Cross Street,Urur,Velachery,12.99707109,80.26851687
13,177, Dr. Ambedkar Nagar 1st Main Road,Velachery,Velachery,12.99082958,80.20949667
13,177, N.N.G.O Colony 2nd Main Road,Velachery,Velachery,12.9873682,80.20937362
13,177, Indira Gandhi Nagar 3rd Street,Velachery,Velachery,12.99571779,80.20886528
13,177, Telephone Colony 2nd Main Road,Velachery,Velachery,12.9940931,80.20838673
13,177, Mahalakshmi Nagar 1st Main Road,Velachery,Velachery,12.98352199,80.20499139
13,177, Krishnaraja Nagar Extn. 1st St,Velachery,Velachery,12.98202056,80.20841811
13,177, L.H. Nagar 4th Cross Street,Velachery,Velachery,12.98600551,80.20915449
13,177, Gangai Nagar 2nd Main Roa,Velachery,Velachery,12.98374324,80.21675215
14,183, OMR ROAD,Kottivakkam,Sholinganallur,12.96825054,80.24929594
14,183, Rajiv Gandhi Road,Kottivakkam,Sholinganallur,12.97015853,80.24990518
14,183, Rajiv Gandhi Road,Kottivakkam,Sholinganallur,12.96808594,80.24894633
14,184, MGR NEDUNCHALAI,Perungudi,Sholinganallur,12.97193233,80.24408707
14,184, MGR NEDUNCHALAI,Perungudi,Sholinganallur,12.96801732,80.23810294
14,185, OMR Road,Palavakkam,Sholinganallur,12.96286497,80.24554534
14,185, OMR Road,Palavakkam,Sholinganallur,12.96300048,80.24614906
14,185, GOVINDAN NAGAR,Palavakkam,Sholinganallur,12.96012729,80.25076816
14,185, EAST COAST ROAD,Palavakkam,Sholinganallur,12.95833555,80.25500764
14,185, V.G.P 4th Main Road,Palavakkam,Sholinganallur,12.96308813,80.25997818
14,186, RAJIV NAGAR 1ST MAIN ROAD,Perungudi,Sholinganallur,12.95753736,80.2371441
14,186, Venkateswara Nagar 1st Cross Street,Perungudi,Sholinganallur,12.96082493,80.23524665
14,186, Panchayat Main Salai,Perungudi,Sholinganallur,12.95754069,80.24038868
14,186, Thirumalai Nagar 1st main road,Perungudi,Sholinganallur,12.96123216,80.24195459
14,186, Oomaithurai Street,Perungudi,Sholinganallur,12.95837194,80.23929885
14,186, RAJIV NAGAR 1ST MAIN ROAD,Perungudi,Sholinganallur,12.95839663,80.23812766
14,188, MEENAKSHI NAGAR,Madipakkam,Sholinganallur,12.95395734,80.19705746
14,188, SENTHIL NAGAR MAIN ROAD,Madipakkam,Sholinganallur,12.95369382,80.19330578
14,188, Ram Nagar South 8th Main Road,Pallikaranai,Sholinganallur,12.96062691,80.2128782
14,189, Astalakshmi Nagar Avenue,Pallikaranai,Sholinganallur,12.93378581,80.20733032
14,189, I. I. T Colony 3rd Main Road,Pallikaranai,Sholinganallur,12.93837848,80.20867301
14,189, Arumugam Nagar 2nd Street,Pallikaranai,Sholinganallur,12.93861721,80.20977185
14,189, Kamakotti Nagar 1st Main Road,Pallikaranai,Sholinganallur,12.94147824,80.21266825
14,189, Kamakotti Nagar 5th Street,Pallikaranai,Sholinganallur,12.94113633,80.2098222
14,189, Kamakoti Nagar 9th Street (South ),Pallikaranai,Sholinganallur,12.94039788,80.21374078
14,189, Kamakoti Nagar 9th Street (North ),Pallikaranai,Sholinganallur,12.94201166,80.2141734
14,189, Kamakoti Nagar 6th Street (North ),Pallikaranai,Sholinganallur,12.94257459,80.2114873
14,189, Kamakoti Nagar 6th Street (South ),Pallikaranai,Sholinganallur,12.94096656,80.21115246
14,189, V.G.P. Shanthi Nagar Santhosh Street,Pallikaranai,Sholinganallur,12.93460641,80.21384221
14,189, V.G.P. Shanthi Nagar 3rd Street (Elango),Pallikaranai,Sholinganallur,12.93646996,80.21261952
14,189, Parasuram Nagar,Pallikaranai,Sholinganallur,12.93620108,80.20515921
14,189, A.G.S Colony 3rd Street,Pallikaranai,Sholinganallur,12.94025486,80.21542758
14,189, Bethal Nagar,Pallikaranai,Sholinganallur,12.94631061,80.23302919
14,189, Bethal Nagar,Pallikaranai,Sholinganallur,12.94346086,80.23233869
14,190, Chettinadu Enclave,Pallikaranai,Sholinganallur,12.9417677,80.19983871
14,169, AGS COLONY 1st CROSS STREET,Madipakkam,Sholinganallur,12.97284717,80.20868836
14,169, E.P.R. COLONY,Madipakkam,Sholinganallur,12.97725307,80.20176738
14,169, BALAJI NAGAR EAST EXTN. 2ND 32ND STREET,Madipakkam,Sholinganallur,12.9729029,80.2076814
14,169, BALAJI NAGAR EAST EXTN. 2ND 35TH STREET,Madipakkam,Sholinganallur,12.97310556,80.20774368
14,169, SHEELA NAGAR 1st STREET,Madipakkam,Sholinganallur,12.9666904,80.20294687
14,169, BALAJI NAGAR EAST EXTN. 1ST 24TH STREET,Ullagaram,Sholinganallur,12.97358802,80.20489323
14,169, SARATHY NAGAR 2nd STREET,Ullagaram,Sholinganallur,12.97102659,80.19967458
14,169, Velachery Main Road,Ullagaram,Sholinganallur,12.97581909,80.20786193
14,190, Chettinadu Enclave,Pallikaranai,Sholinganallur,12.94233912,80.20111806
14,190, PASUPON NAGAR 1ST STREET,Pallikaranai,Sholinganallur,12.91808657,80.22528566
14,190, Chettinadu Enclave,Pallikaranai,Sholinganallur,12.94081583,80.20138077
14,191, JAYACHANDRAN NAGAR 5TH MAIN ROAD,Jalladampet,Sholinganallur,12.92316988,80.19983775
14,191," SELEN ESTATE, JALLADAMPET - PERUMBAKKAM LINK ROAD",Jalladampet,Sholinganallur,12.91036028,80.2032189
14,191, Gandhi Street,Jalladampet,Sholinganallur,12.91876905,80.20311329
14,191, Krishna Nagar Main Road,Jalladampet,Sholinganallur,12.92098247,80.20508725
14,191, ANCHANEYA NAGAR KANNADASAN STREET,Jalladampet,Sholinganallur,12.91952919,80.2071291
15,195, KANNAKI NAGAR,Okkiam Thorapakkam,Sholinganallur,12.92896803,80.23875034
15,195, RAJIV GANDHI SALAI(OMR),Okkiam Thorapakkam,Sholinganallur,12.92961693,80.23058001
15,195, SHAKTHI GARDEN,Okkiam Thorapakkam,Sholinganallur,12.92390235,80.23692466
15,195, PILLAYAR KOIL STREET,Okkiam Thorapakkam,Sholinganallur,12.92373773,80.23646582
15,195, THIRUVALLUVAR STREET,Okkiam Thorapakkam,Sholinganallur,12.92748751,80.2357294
15,195, SOWTESWARI NAGAR,Okkiam Thorapakkam,Sholinganallur,12.92695892,80.22797078
15,195, RAJIV GANDHI SALAI(OMR),Okkiam Thorapakkam,Sholinganallur,12.92742643,80.2289278
15,195, ANNAI INDIRA NAGAR,Okkiam Thorapakkam,Sholinganallur,12.92802831,80.23330634
15,196, ANNA ENCLAVE,Enjambakkam,Sholinganallur,12.92597629,80.25038388
15,196, JAGAJEVANRAM AVENUE,Enjambakkam,Sholinganallur,12.91248714,80.25140387
15,197, KUMARASAMY NAGAR MAIN ROAD,Sholinganallur,Sholinganallur,12.89691376,80.22150606
15,197, RAJIV GANDHI ROAD (OLD MAHABALIPURAM ROAD),Sholinganallur,Sholinganallur,12.91050946,80.22825085
15,197, ELCOT AVENUE IST STREET,Sholinganallur,Sholinganallur,12.89715583,80.22407752
15,197, KUMARASAMY NAGAR MAIN ROAD,Sholinganallur,Sholinganallur,12.89765247,80.22241483
15,197, RAJIV GANDHI ROAD (OLD MAHABALIPURAM ROAD),Sholinganallur,Sholinganallur,12.90758694,80.22886809
15,197, RAJIV GANDHI ROAD (OLD MAHABALIPURAM ROAD),Sholinganallur,Sholinganallur,12.90518711,80.22870103
15,197, RAJIV GANDHI ROAD (OLD MAHABALIPURAM ROAD),Sholinganallur,Sholinganallur,12.89422939,80.22802121
15,197, WIPRO SALAI,Sholinganallur,Sholinganallur,12.90744565,80.226394
15,197, SADAGOPA NAICKAR STREET,Karapakkam,Sholinganallur,12.91076376,80.23185046
15,197, SOZHANGANALLUR LINK STREET,Sholinganallur,Sholinganallur,12.90018244,80.23041584
15,197, ESWARAN STREET,Sholinganallur,Sholinganallur,12.92141676,80.22824779
15,197, ESWARAN STREET,Karapakkam,Sholinganallur,12.92117225,80.22826861
15,197, RAJIV GANDHI ROAD (OLD MAHABALIPURAM ROAD),Sholinganallur,Sholinganallur,12.89723614,80.22793482
15,197, ANNA STREET,Sholinganallur,Sholinganallur,12.90441097,80.23200205
15,197, KUMARASAMY NAGAR VTH CROSS STREET,Sholinganallur,Sholinganallur,12.89617087,80.22222999
15,197, RIVERVIEW RESIDENCY 4TH STREET,Karapakkam,Sholinganallur,12.91576593,80.22709054
15,197, DEVARAJ NAGAR,Sholinganallur,Sholinganallur,12.90183281,80.23087784
15,197, NEW KUMARAN NAGAR MAIN STREET,Sholinganallur,Sholinganallur,12.90353869,80.23507166
15,197, LALBAHADUR SASTRI STREET,Sholinganallur,Sholinganallur,12.90678216,80.23011819
15,197, PRITHYANGARA KOIL STREET,Sholinganallur,Sholinganallur,12.8977383,80.23511169
15,197, PRITHYANGARA KOIL STREET,Sholinganallur,Sholinganallur,12.89452163,80.23579823
15,197, MODEL SCHOOL ROAD,Sholinganallur,Sholinganallur,12.8950574,80.2212397
15,198, HOUSING BOARD ROAD E12,Sholinganallur,Sholinganallur,12.87872525,80.23391917
15,198, SEA CLIFF CONCLAVE,Sholinganallur,Sholinganallur,12.89474378,80.24982538
15,198, HOUSING BOARD ROAD C1,Sholinganallur,Sholinganallur,12.87614427,80.23060373
15,198, HOUSING BOARD ROAD E1,Sholinganallur,Sholinganallur,12.87781583,80.23117851
15,198, HOUSING BOARD ROAD E17,Sholinganallur,Sholinganallur,12.88017253,80.23583775
15,198, HOUSING BOARD ROAD E22,Sholinganallur,Sholinganallur,12.88027182,80.23660009
15,198, HOUSING BOARD ROAD D40,Sholinganallur,Sholinganallur,12.88365932,80.23735317
15,198, HOUSING BOARD ROAD C14,Sholinganallur,Sholinganallur,12.88805571,80.23619979
15,198, HOUSING BOARD ROAD C12,Sholinganallur,Sholinganallur,12.88522066,80.23499055
15,198, HOUSING BOARD ROAD B6,Sholinganallur,Sholinganallur,12.88341999,80.2346563
15,198, HOUSING BOARD ROAD C9,Sholinganallur,Sholinganallur,12.88203394,80.23470831
15,198, HOUSING BOARD ROAD C6,Sholinganallur,Sholinganallur,12.88063063,80.23306157
15,198, HOUSING BOARD ROAD E43,Sholinganallur,Sholinganallur,12.88231988,80.23120821
15,198, HOUSING BOARD ROAD D5,Sholinganallur,Sholinganallur,12.88174196,80.2312052
15,198, HOUSING BOARD ROAD E36,Sholinganallur,Sholinganallur,12.88258558,80.23198608
15,198, HOUSING BOARD ROAD C7,Sholinganallur,Sholinganallur,12.88314543,80.23242104
15,198, EAST COAST ROAD,Sholinganallur,Sholinganallur,12.89782525,80.24212737
15,198, AKKARAI VILLAGE MAIN STREET,Sholinganallur,Sholinganallur,12.90533291,80.24049742
15,198, EAST COAST ROAD,Sholinganallur,Sholinganallur,12.89903875,80.24392242
15,198, EAST COAST ROAD,Sholinganallur,Sholinganallur,12.89941656,80.24311405
15,198, ADITHYA RAM NAGAR,Sholinganallur,Sholinganallur,12.88713574,80.24036899
15,198, PUDUCHERY SALAI,Sholinganallur,Sholinganallur,12.87714285,80.22927684
15,198, T. N. HOUSING BOARD A ROAD,Sholinganallur,Sholinganallur,12.88017086,80.22704141
15,198, HOUSING BOARD ROAD D3,Sholinganallur,Sholinganallur,12.8809184,80.23055712
15,198, HOUSING BOARD ROAD D3,Sholinganallur,Sholinganallur,12.87984854,80.23024208
15,198, HOUSING BOARD B1 ROAD,Sholinganallur,Sholinganallur,12.88404362,80.23137591
15,198, HOUSING BOARD B1 ROAD,Sholinganallur,Sholinganallur,12.88304897,80.23134902
15,198, HOUSING BOARD ROAD D1,Sholinganallur,Sholinganallur,12.87786603,80.23051409
15,198, GANGAIAMMAN KOIL MAIN ST,Sholinganallur,Sholinganallur,12.88589944,80.2314834
15,198, HOUSING BOARD ROAD D2,Sholinganallur,Sholinganallur,12.87881919,80.23025876
15,192, WORKERS ESTATE 1ST MAIN ROAD,Neelangarai,Sholinganallur,12.94110019,80.25459278
15,192, RAJA NAGAR 1ST MAIN ROAD,Neelangarai,Sholinganallur,12.94202521,80.25568327
15,193, SAI NAGAR MAIN ROAD,Okkiam Thorapakkam,Sholinganallur,12.95153355,80.23463492
15,193, R.E. NAGAR,Okkiam Thorapakkam,Sholinganallur,12.94638604,80.23304477
15,193, CUSTOMS COLONY MAIN ROAD,Okkiam Thorapakkam,Sholinganallur,12.94373138,80.24269531
15,193, ANANDA NAGAR,Okkiam Thorapakkam,Sholinganallur,12.94704695,80.23393466
15,193, SAKTHI NAGAR MAIN ROAD,Okkiam Thorapakkam,Sholinganallur,12.94541537,80.24059518
15,193, BALAMURUGAN GARDEN III STREET,Okkiam Thorapakkam,Sholinganallur,12.9436383,80.24105497
15,193, ANANDA NAGAR MAIN ROAD,Okkiam Thorapakkam,Sholinganallur,12.94883954,80.23449447
15,193, POST OFFICE STREET,Okkiam Thorapakkam,Sholinganallur,12.94997299,80.24028205
15,193, 200 FEET ROAD (RADIAL ROAD),Sholinganallur,Sholinganallur,12.9489456,80.23930633
15,193, SAI NAGAR 10TH CROSS STREET,Okkiam Thorapakkam,Sholinganallur,12.95318439,80.23428524
15,194, CHANDRASEKARAN AVENUE,Okkiam Thorapakkam,Sholinganallur,12.93468201,80.23133853
15,194, PALLAVAN KUDIRUPPU,Okkiam Thorapakkam,Sholinganallur,12.931713,80.23402863
15,194, SECRETARIAT COLONY 1ST MAIN ROAD,Okkiam Thorapakkam,Sholinganallur,12.93780277,80.24490756
15,194, SAKTHI SRINIVASAN SALAI,Okkiam Thorapakkam,Sholinganallur,12.94067001,80.23945555
15,194, BHARATHIYAR NAGAR,Okkiam Thorapakkam,Sholinganallur,12.93590038,80.23930126
15,194, RAJIV GANDHI ROAD,Okkiam Thorapakkam,Sholinganallur,12.93707043,80.2335481
15,194, RAJIV GANDHI ROAD,Okkiam Thorapakkam,Sholinganallur,12.93711719,80.23290764
15,194, GUINDY ENGEENEARING LAT OUT,Okkiam Thorapakkam,Sholinganallur,12.93373352,80.23858859
15,194, RAJIV GARDEN SALAI,Okkiam Thorapakkam,Sholinganallur,12.93802827,80.24017714
15,195, KANNAKI NAGAR,Okkiam Thorapakkam,Sholinganallur,12.92875107,80.23786356
15,195, KANNAKI NAGAR,Okkiam Thorapakkam,Sholinganallur,12.92921888,80.23994315
15,195, KANNAKI NAGAR,Okkiam Thorapakkam,Sholinganallur,12.93120155,80.23921453
