Zone,Div,Area,Location,Street,latitude,longitude
4,34, KODUNGAIYUR,JUMBULI VILLAGE,RIZWAN STREET (MILK COLONY ROAD),13.14219511,80.24076904
4,35, KODUNGAIYUR,MOOLAKADAI,TONDIARPET HIGH ROAD,13.13638355,80.25710065
4,35, KODUNGAIYUR,V.V.NAGAR,SIDCO MAIN ROAD,13.13159209,80.25315247
4,35, KODUNGAIYUR,V.V.NAGAR,SIDCO MAIN ROAD,13.13159203,80.25319359
4,35, KODUNGAIYUR,MUTHAMIL NAGAR,MUTHAMIL NAGAR VIII BLOCK 210TH STREET,13.13119866,80.25070284
4,36, VYASARPADI,M.K.B. NAGAR,PUDU NAGAR VII STREET,13.12316557,80.25649647
4,36, VYASARPADI,SHARMA NAGAR,ERUKENCHERY HIGH ROAD,13.1206062,80.25461238
4,36, ERUKKENCHERRY,ERUKKENCHERRY,PAPATHI AMMAL KOIL STREET,13.12456051,80.24901072
4,36, ERUKKENCHERRY,SULPUNAL KARAI,DR. AMBEDKAR STREET (SUZPUNAL KARAI),13.12485234,80.24996388
4,36, ERUKKENCHERRY,SULPUNAL KARAI,DR. AMBEDKAR STREET (SUZPUNAL KARAI),13.12486975,80.25007269
4,36, VYASARPADI,S.A. COLONY,S.A. COLONY VII  STREET,13.12394775,80.25086006
4,36, VYASARPADI,SHARMA NAGAR,SASTRI NAGAR QUIDE MILLAT ROAD,13.11921946,80.25374681
4,36, VYASARPADI,INDIRA GANDHI NAGAR,INDIRA GHANDHI NAGAR 1ST STREET,13.12231175,80.24942715
4,37, VYASARPADI,M.K.B. NAGAR,GOODSHED ROAD,13.12386686,80.26787053
4,37, KODUNGAIYUR,RAJARATHINAM NAGAR,RAJARATHINAM NAGAR 4TH MAIN ROAD,13.1277523,80.26711333
4,37, VYASARPADI,M.K.B. NAGAR,NORTH AVENUE ROAD,13.12667788,80.2624275
4,37, VYASARPADI,M.K.B. NAGAR,EAST AVENUE ROAD,13.12341686,80.26569437
4,38, TONDIARPET,BPC LIMTED,VAIDYANATHAN STREET,13.12852242,80.28181088
4,38, TONDIARPET,BPC LIMTED,VAIDYANATHAN STREET,13.12852141,80.28182863
4,38, TONDIARPET,BPC LIMTED,VAIDYANATHAN STREET,13.12851567,80.28186014
4,38, TONDIARPET,BPC LIMTED,VAIDYANATHAN STREET,13.12851325,80.2818767
4,39, NEW WASHERMEN PET,NEW WASHERMEN PET,ARUNACHALA EASWARAR KOIL STREET,13.13877162,80.29373084
4,39, NEW WASHERMEN PET,CHERIAN NAGAR,SURYA NARAYANA (C) STREET,13.13398987,80.2969162
4,40, TONDIARPET,BPC LIMTED,ILLAYA ST,13.1303323,80.28543468
4,40, TONDIARPET,JEEVA NAGAR,THIRUVETRIYUR HIGH ROAD,13.13431849,80.2926157
4,40, TONDIARPET,JEEVA NAGAR,THIRUVETRIYUR HIGH ROAD,13.13870464,80.29364425
4,40, TONDIARPET,JEEVA NAGAR,A.A.SCHEME ROAD,13.13358517,80.28958194
4,40, TONDIARPET,JEEVA NAGAR,JEEVA NAGAR MAIN ROAD,13.13880325,80.29107639
4,41, KORUKKUPET,ANNA NAGAR,PERIYAR SALAI,13.12143002,80.27469845
4,41, KORUKKUPET,J.J.NAGAR,KAMARAJAR NAGAR ROAD,13.11900424,80.27437896
4,41, KORUKKUPET,KAMARAJ NAGAR,KAMARAJAR NAGAR ROAD,13.11902737,80.27326555
4,42, TONDIARPET,TONDIARPET,KAILASAM STREET (ALIAS) ELLAYA 2ND LANE,13.12655498,80.28600782
4,42, OLD WASHERMENPET,KORUKKUPET,THIRUVETRIYUR HIGH ROAD,13.11868501,80.28527566
4,42, OLD WASHERMENPET,KORUKKUPET,THIRUVETRIYUR HIGH ROAD,13.11867758,80.28527328
4,42, OLD WASHERMENPET,KORUKKUPET,THIRUVETRIYUR HIGH ROAD,13.11866388,80.28526506
4,42, OLD WASHERMENPET,KORUKKUPET,THIRUVETRIYUR HIGH ROAD,13.11865763,80.28526146
4,43, ROYAPURAM,ROYAPURAM,THIDEER NAGAR(INCLUDING PALLAVAN NAGAR),13.13064643,80.29600626
4,43, TONDIARPET,TONDIARPET,THANDAIYARPET STREET(ATHIDRAVIDAR STREET),13.12761327,80.29242683
4,43, ROYAPURAM,ROYAPURAM,SOORYA NARAYANA CHETTY STREET,13.12393173,80.29444076
4,43, TONDIARPET,TONDIARPET,THANDAVARAYA (GRAMINI) STREET,13.12251601,80.29249469
4,43, ROYAPURAM,ROYAPURAM,PUDHUMANAI KUPPAM FIRST STREET,13.12397849,80.29543475
4,45, VYASARPADI,SANJAY NAGAR,SANJAY NAGAR 6TH STREET,13.11398656,80.2563869
4,45, VYASARPADI,BHAKTHAVATCHALAM  COLONY,BHAKTHAVATCHALAM  COLONY 8TH STREET,13.11534598,80.25591933
4,45, VYASARPADI,BHAKTHAVATCHALAM  COLONY,BHAKTHAVATCHALAM  COLONY 3RD   STREET,13.11581556,80.25353355
4,45, VYASARPADI,VYASARPADI,CLINIC ROAD,13.11685824,80.25589297
4,46, VYASARPADI,VYASARPADI,NEW GOOD SHED ROAD,13.11815318,80.26770126
4,46, VYASARPADI,VYASARPADI,JOHNKENNEDY NAGAR,13.11768594,80.26534837
4,46, VYASARPADI,MALLIGAIPOO COLONY,MALLIGAIPOO COLONY MAIN STREET,13.11660766,80.2677056
4,46, VYASARPADI,VYASARPADI,MELPATTI PONNAPPAN STREET,13.11432383,80.26147938
4,46, VYASARPADI,VYASARPADI,MELPATTI PONNAPPAN STREET,13.11428299,80.26144169
4,46, VYASARPADI,VYASARPADI,VENKATESAPERUMAL KOIL STREET,13.11382133,80.26701808
4,46, VYASARPADI,VYASARPADI,NEW GOOD SHED ROAD,13.11779264,80.26782871
4,47, KORUKKUPET,KORUKKUPET,C.B. ROAD,13.11096361,80.27405101
4,47, KORUKKUPET,KORUKKUPET,OLD GLASS FACTORY ROAD,13.11138284,80.27309081
4,47, KORUKKUPET,KORUKKUPET,OLD GLASS FACTORY ROAD,13.1113829,80.27304726
4,47, KORUKKUPET,KORUKKUPET,C.B. ROAD,13.11255522,80.27452831
4,47, KORUKKUPET,KORUKKUPET,C.B. ROAD,13.11241607,80.27462153
4,47, KORUKKUPET,MEENAMBAL NAGAR,MEENAMBAL NAGAR CROSS ST,13.11602817,80.27567375
4,47, KORUKUPET,ANANTHA NAYAGI NAGAR,THIYAGAPPA CHETTY STREET,13.11828475,80.27991895
4,47, KORUKKUPET,KAMARAJ NAGAR,KAMARAJ NAGAR 2ND STREET,13.11904049,80.2732417
4,48, OLD WASHERMENPET,OLD WASHERMENPET,NAINIAPPAN NAIKAN STREET,13.1153492,80.2812226
4,48, OLD WASHERMENPET,CEMETRY ROAD,WEST CEMETRY STREET,13.11245026,80.28274003
5,55, GEORGE TOWN,SEVEN WELLS,SAMAYAVARADHAMMAN KOIL STREET,13.09928871,80.28097816
5,55, KONDITHOPPU,VALLALAR NAGAR,MINT STREET,13.105032,80.28006114
5,55, KONDITHOPPU,VALLALAR NAGAR,MINT STREET,13.10489308,80.28005542
5,49, OLD WASHERMENPET,SINGARA THOTTAM,SINGARA THOTTAM 4TH LANE,13.11381961,80.28955156
5,49, OLD WASHERMENPET,OLD WASHERMENPET,WEST KALMANDAPAM ROAD,13.11568177,80.28954064
5,49, OLD WASHERMENPET,OLD WASHERMENPET,GOLLAVAR AGRAHARAM ROAD,13.11941362,80.29041061
5,50, ROYAPURAM,ROYAPURAM,SOORYANARAYANA (CHETTY) STREET,13.11910004,80.29343666
5,50, ROYAPURAM,ROYAPURAM,THAMBU LANE,13.11664405,80.29507137
5,50, ROYAPURAM,ROYAPURAM,SOORYANARAYANA (CHETTY) STREET,13.11636346,80.29293516
5,50, ROYAPURAM,ROYAPURAM,SOORYANARAYANA (CHETTY) STREET,13.11793416,80.29318404
5,51, OLD WASHERMENPET,OLD WASHERMENPET,NARAYANAPPA  NAIKEN 8TH LANE,13.11194299,80.28692246
5,52, ROYAPURAM,MEENATCHIAMMAN PETTAI,MASUTHI STREET ALIAS MOSQUE STREET,13.10776124,80.29105788
5,52, ROYAPURAM,MEENATCHIAMMAN PETTAI,MASUTHI STREET ALIAS MOSQUE STREET,13.10776175,80.29104456
5,52, ROYAPURAM,ROYAPURAM,RAMANAIKEN STREET 8TH LANE,13.11174719,80.2899215
5,52, ROYAPURAM,ROYAPURAM,RAMANAIKEN STREET 8TH LANE,13.11176629,80.28980453
5,52, ROYAPURAM,ROYAPURAM,M.P.T. COLONY NORTH RAILWAY TERMINAL SALAI,13.10609629,80.29189171
5,52, ROYAPURAM,ROYAPURAM,MANNAR SAMY KOIL STREET,13.10329141,80.29068825
5,52, ROYAPURAM,ROYAPURAM,OLD SLAUGHTER HOUSE ROAD,13.10357968,80.29038824
5,52, ROYAPURAM,ROYAPURAM,OLD SLAUGHTER HOUSE ROAD,13.10359217,80.2903676
5,52, ROYAPURAM,ROYAPURAM,OLD SLAUGHTER HOUSE ROAD,13.10413432,80.28909984
5,52, ROYAPURAM,ROYAPURAM,OLD SLAUGHTER HOUSE ROAD,13.10485021,80.28721715
5,52, MUTHIAL PET,OLD SLAUGHTER HOUSE ROAD,EBRAHIM (SAHIB) STREET,13.10309448,80.28993064
5,52, ROYAPURAM,ROYAPURAM,MONGEAR CHOUTTRY ROAD,13.10562513,80.28655303
5,52, GEORGE TOWN,SEVEN WELLS,OLD JAIL ROAD,13.10520275,80.28394967
5,52, ROYAPURAM,MODEL NAGAR,MODEL LINE 9TH LANE,13.1086875,80.2836542
5,52, ROYAPURAM,MODEL NAGAR,MODEL LINE 9TH LANE,13.10821394,80.28478801
5,53, OLD WASHERMENPET,BOJARAJA NAGAR,BOJARAJA NAGAR MAIN STREET,13.11124673,80.27699389
5,53, OLD WASHERMENPET,SRINIVASAPURAM,SRINIVASAPURAM 2ND STREET,13.11295637,80.27610987
5,56, BROADWAY,ASIRVATHA PURAM,ASIRVADAPURAM 13TH LANE,13.09925641,80.28638158
5,57, SOWCARPET,KOTHAVAL CHAVADI,AMBERSON STREET,13.09131225,80.28525772
5,57, SOWCARPET,VOC NAGAR,ELEPHANTGATE BRIDGE ROAD(RAILWAY ANDRAILWAY POLICE,13.09073637,80.27473979
5,57, SOWCARPET,VOC NAGAR,TNSCB QUARTERS A TO H BLOCK,13.0933627,80.27470335
5,57, ELEPHANT GATE,KALYANAPURAM,KALYANAPURAM 10TH MAIN STREE,13.0939702,80.27423357
5,57, SOWCARPET,PARK TOWN,V.O.C SALAI,13.09409763,80.27509912
5,58, CHOOLAI,CHOOLAI,ROTTLER STREET,13.09036516,80.25910102
5,58, CHOOLAI,CHOOLAI,DEPOT STREET,13.08991811,80.2690657
5,58, CHOOLAI,CHOOLAI,NEHRU MARKET ROAD,13.09011823,80.27018434
5,58, CHOOLAI,NEW MOORE MARKET,NEW MOORE MARKET ROAD,13.09203685,80.27159271
5,58, CHOOLAI,CHOOLAI,RAJAMUTHAIAH SALAI (SYDENNAMS ROAD),13.0910009,80.269493
5,58, CHOOLAI,CHOOLAI,RAJAMUTHAIAH SALAI (SYDENNAMS ROAD),13.09096136,80.2695045
5,58, VEPERY,PERIAMET,STRINGERS STREET,13.08286135,80.26585807
5,58, VEPERY,PERIAMET,NAVEL HOSPITAL MAIN ROAD,13.08382947,80.26684282
5,58, CHOOLAI,CHOOLAI,SYDENHAMS ROAD,13.0875689,80.26989745
5,58, VEPERY,VEPERY,E.V.K.SAMPATH SALAI,13.09001706,80.26496895
5,58, CHOOLAI,CHOOLAI,THIRU NARAYANA GURU SALAI,13.08789505,80.26112055
5,58, CHOOLAI,CHOOLAI,SYDENHAMS ROAD,13.08227203,80.2708744
5,58, PERIAMET,PERIAMET,RIPPON BUILDING ANNEXURE ROAD (NORTH),13.08271271,80.27238906
5,58, EGMORE,EGMORE,WHANNELS ROAD,13.07883441,80.2632894
5,60, PARRYS,PARRYS,ARBUTNOT LANE,13.09535965,80.29185687
5,60, V.O.C NAGAR,CLIVE BATTERY,NARAYANAPPA (NAICKEN) STREET,13.09702074,80.29166469
5,60, V.O.C NAGAR,CLIVE BATTERY,NARAYANA SARANG THOTTAM STREET,13.09919591,80.29272077
5,60, GEORGE TOWN,GEORGE TOWN,N.S.C.BOSE ROAD,13.08847493,80.28803937
5,61, EGMORE,BOOPATHY NAGAR,GENGU SUBWAY SERVICE ROAD (BHOOPATHY NAGAR SIDE ),13.07575159,80.25227979
5,61, EGMORE,SAMY PURAM,RANGACHARI STREET,13.07348045,80.25437924
5,61, PUDUPET,PUDUPET,ATHITHANAR ROAD,13.07247427,80.2635139
5,61, PUDUPET,PUDUPET,LONGS GARDEN ROAD,13.0735931,80.26570182
5,61, PUDUPET,PUDUPET,DRIVER STREET,13.0705297,80.26278749
5,61, EGMORE,EGMORE,MONTIETH ROAD,13.06632115,80.2606071
5,61, PUDUPET,PUDUPET,RUCKMANI LAKSHMIPATHY SALAI,13.06631224,80.26082861
5,61, EGMORE,EGMORE,MONTIETH ROAD,13.06631437,80.26059117
5,61, PUDUPET,PUDUPET,RUCKMANI LAKSHMIPATHY SALAI,13.06632476,80.26084302
5,61, EGMORE,EGMORE,GANDHI IRWIN ROAD,13.07804579,80.26282607
5,61, EGMORE,EGMORE,GANDHI IRWIN ROAD,13.07682516,80.26018146
5,61, EGMORE,EGMORE,GANDHI IRWIN ROAD,13.07677328,80.26012186
5,61, EGMORE,EGMORE,PONNI AMMAN KOIL STREET,13.07652416,80.26469607
5,62, CHINDATRIPET,CHINDATRIPET,LAFFOND STREET,13.07502842,80.27210236
5,62, CHINDATRIPET,CHINDATRIPET,ARUNACHALAM (M) STREET,13.07480335,80.27185059
5,62, CHINDATRIPET,CHINDATRIPET,EAST COOVAM RIVER ROAD,13.07774544,80.27243805
5,62, CHINDATRIPET,CHINDATRIPET,EAST COOVAM RIVER ROAD,13.07774544,80.27243805
5,62, CHINDATRIPET,CHINDATRIPET,KAVOOR VAITHIYANATHAN STREET,13.07805252,80.26706696
5,62, CHINDATRIPET,CHINDATRIPET,NEW BALAKRISHNAN STREET,13.07784653,80.26838684
5,62, CHINDATRIPET,CHINDATRIPET,WEST KOOVAM RIVER ROAD AND HUTS,13.07333756,80.26733398
5,63, PUDUPET,PUDUPET,LINK ROAD,13.0637282,80.26132759
5,63, PUDUPET,PUDUPET,DAMS ROAD,13.06994114,80.26958369
5,63, KOMALEESWARANPET,KOMALEESWARANPET,LANGS GARDEN STREET,13.06874494,80.26845133
6,64, KOLATHUR,POOMPUHAR NAGAR,POOMPUHAR NAGAR 28TH STREET,13.12103039,80.21864162
6,64, KOLATHUR,POOMPUHAR NAGAR,POOMPUHAR NAGAR I MAIN ROAD,13.12308816,80.2122875
6,64, KOLATHUR,NERMAI NAGAR,NERMAI NAGAR II STREET,13.12467531,80.22189145
6,66, SEMBIUM,SEMBIUM,S.R.P.KOIL STREET (NORTH),13.11885609,80.23195879
6,66, SEMBIUM,SEMBIUM,S.R.P.KOIL STREET (NORTH),13.12173798,80.23259087
6,68, SEMBIUM,SEMBIUM,PALLAVAN SALAI,13.12231311,80.23876193
6,68, SEMBIUM,MADURAISAMY MADAM,MADURAISAMY MADAM STREET,13.1159603,80.23905187
6,68, SEMBIUM,JAIBEAM NAGAR,JAIBEAM NAGAR 1ST STREET,13.11997277,80.23823476
6,68, SEMBIUM,SEMBIUM,THILLAINAYAGAM 2ND STREET,13.11383586,80.23620462
6,69, PERAMBUR,SIRUVALLUR,SHANTHI NAGAR 2ND LANE,13.11875921,80.23960434
6,69, PERAMBUR,SIRUVALLUR,MADHAVARAM HIGH ROAD NORTH,13.11941114,80.24241099
6,69, AYANAVARAM,NAGAMMAIYAR NAGAR,TIKKAKULAM STREET,13.10393126,80.24232392
6,69, AYANAVARAM,NAGAMMAIYAR NAGAR,ANDERSON ROAD,13.10193843,80.24297592
6,70, METTUPALAYAM,ARUNDHATHI NAGAR,GOVINDAN STREET,13.10804748,80.25423211
6,70, PERAMBUR,PERAMBUR,MELPATTI PONNAPPAN SALAI,13.11485548,80.25194456
6,70, PERAMBUR,PERAMBUR,MADHAVARAM HIGH ROAD,13.11033537,80.24365546
6,70, PERAMBUR,PERAMBUR,PERAMBUR HIGH ROAD,13.10817943,80.24870185
6,71, OTTERI,BRISLY NAGAR,BRISLY NAGAR 1ST STREET,13.09983262,80.24977745
6,71, JAMALIYA,THIRU-VI-KA NAGAR,PERAMBUR HIGH ROAD,13.10716122,80.24548311
6,71, JAMALIYA,THIRU-VI-KA NAGAR,PERAMBUR HIGH ROAD,13.10610056,80.24281336
6,71, AYANAVARAM,NAGAMMAIYAR NAGAR,ANDERSON ROAD,13.09807401,80.24236325
6,72, PULIANTHOPE,PULIANTHOPE,DR. AMBEDKAR COLLEGE RD,13.10673109,80.26081356
6,72, PULIANTHOPE,PULIANTHOPE,POWDER MILLS ROAD,13.10113814,80.2671814
6,72, PULIANTHOPE,KANNIGAPURAM,VENKATESAPURAM NEW COLONY 1ST CR,13.10743725,80.2625376
6,72, PULIANTHOPE,VOC NAGAR,VOC NAGAR 1ST STREET,13.10447766,80.26278731
6,72, PULIANTHOPE,AMBEDKAR NAGAR,AMBEDKAR NAGAR MAIN ROAD,13.10307484,80.26306776
6,72, PULIANTHOPE,PULIANTHOPE,HARNESS SADDLE FACTORY ROAD,13.10312677,80.26533412
6,72, PULIANTHOPE,NARASIMA NAGAR,NARASIMA NAGAR 1ST CROSS ST,13.10429534,80.26663959
6,72, PULIANTHOPE,PULIANTHOPE,NAGATHAMMAN KOIL STREET,13.1021244,80.26686281
6,72, PULIANTHOPE,KANNIGAPURAM,VASUGI NAGAR H.B. 1ST ST,13.10709961,80.26679239
6,72, PULIANTHOPE,KANNIGAPURAM,VASUGI NAGAR 1ST STREET,13.10578831,80.26616083
6,73, OTTERI,PATTALAM,STRAHANS ROAD,13.09814549,80.25152183
6,73, OTTERI,PATTALAM,STRAHANS ROAD,13.09808443,80.25150151
6,73, OTTERI,PATTALAM,STRAHANS ROAD,13.09805742,80.25151136
6,73, PULIANTHOPE,PULIANTHOPE,DR. AMBEDKAR COLLEGE RD,13.10248691,80.26058806
6,73, PULIANTHOPE,PULIANTHOPE,RAMASWAMY STREET,13.10207997,80.26235825
6,73, PULIANTHOPE,PULIANTHOPE,PULLIANTHOPE HIGH ROAD,13.0989521,80.26566338
6,73, PULIANTHOPE,PULIANTHOPE,PULLIANTHOPE HIGH ROAD,13.09855344,80.2670826
6,73, OTTERI,OTTERI,NEW FERRANCE ROAD,13.09931476,80.25532657
6,74, NAMMALWARPET,NAMMALWARPET,CHINNABABU STREET,13.0957475,80.24506654
6,74, KILPAUK,RANGANADHAPURAM,RANGANADHAPURM SLUM,13.09349925,80.24288596
6,74, KILPAUK,KILPAUK,MEDAVAKKAM 2ND STREET,13.0874039,80.24592946
6,74, KILPAUK,KILPAUK,MEDAVAKKAM TANK ROAD,13.08971922,80.24110893
6,75, OTTERI,OTTERI,VENKATAMMAL SAMATHI STREET,13.09150137,80.2532172
6,75, OTTERI,OTTERI,VENKATAMMAL SAMATHI STREET,13.09142755,80.25244195
6,75, OTTERI,S.S.PURAM SLUM,S.S.PURAM `A BLOCK 3RD STREET,13.09332738,80.25079386
6,76, CHOOLAI,CHOOLAI,ANGALAMMAN KOIL STREET,13.09579212,80.26240562
6,76, CHOOLAI,THATTANGULAM,MUNUSAMY STREET,13.09658829,80.26313631
6,76, KOSAPET,KOSAPET,DEVARAJ (M) STREET,13.09605822,80.2569753
6,76, KOSAPET,KOSAPET,SACHIDANANDAM  STREET (NEW STREET UPTO DOBIKHANA),13.09510831,80.257661
6,76, CHOOLAI,CHOOLAI,ANGALAMMAN KOIL STREET,13.09633779,80.2622806
6,76, CHOOLAI,CHOOLAI,ANGALAMMAN KOIL STREET,13.09497029,80.26252657
6,76, PATTALAM,PATTALAM,PERAMBUR BARRACKS ROAD (VEDA VINAYAGAR SALAI),13.09413197,80.25895337
6,76, PATTALAM,K.M.GARDEN,KALYANA MASTRI GARDEN 1ST STREET,13.09441592,80.25897673
6,76, PATTALAM,K.M.GARDEN,KALYANA MASTRI GARDEN 11TH STREET,13.09451868,80.26189495
6,76, PATTALAM,K.M.GARDEN,KALYANA MASTRI GARDEN 13TH STREET,13.09450522,80.26227641
6,76, PATTALAM,K.M.GARDEN,KALYANA MASTRI GARDEN 6TH STREET,13.09382935,80.26011863
6,76, PATTALAM,K.M.GARDEN,KALYANA MASTRI GARDEN 6TH STREET,13.09392835,80.26037676
6,76, PATTALAM,K.M.GARDEN,KALYANA MASTRI GARDEN 6TH STREET,13.09397818,80.26090771
6,77, PULIANTHOPE,PULIANTHOPE,SIVA RAO ROAD,13.09871904,80.26273755
6,78, PURASAIWAKKAM,PURASAIWAKKAM,MUTHU (G) STREET,13.09275951,80.25665238
8,100, ANNA NAGAR,ANNA NAGAR,IIIRD AVENUE,13.07810105,80.21764007
8,100, ANNA NAGAR,ANNA NAGAR,7TH MAIN ROAD TNSCB TENEMENT ROAD,13.07923221,80.20432945
8,100, ANNA NAGAR,ANNA NAGAR,8TH MAIN ROAD,13.07848423,80.21212244
8,100, ANNA NAGAR,ANNA NAGAR,VITH  AVENUE,13.09247552,80.21052371
8,101, ANNA NAGAR,ANNA NAGAR,IIIRD AVENUE,13.07944449,80.21791437
8,101, ANNA NAGAR,ANNA NAGAR,3RD AVENUE,13.08858116,80.21825948
8,102, KILPAUK,KILPAUK,GUJJI MAIN ROAD,13.08885903,80.22999985
8,102, KILPAUK,KILPAUK,GUJJI MAIN ROAD,13.0900527,80.22828565
8,102, ANNA NAGAR EAST,G BLOCK,MAHATMA GANDHI ROAD,13.08619832,80.226961
8,102, ANNA NAGAR,SHENOY NAGAR (WEST),FIRST CROSS STREET (WEST),13.07680806,80.22346882
8,102, AMINJIKARAI,AMINJIKARAI,THIRUVEETHI AMMAN KOIL STREET MAIN ROAD,13.0744724,80.22430834
8,104, PURASAIWAKKAM,KILPAUK,MILLERS RD,13.08926096,80.25087793
8,104, PURASAIWAKKAM,KILPAUK,MILLERS RD,13.08938833,80.25087881
8,104, PURASAIWAKKAM,PURASAIWAKKAM,RAJA ANNAMALAI ROAD,13.08201416,80.25472232
8,104, PURASAIWAKKAM,PURASAIWAKKAM,PERUMAL STREET,13.08311052,80.25333304
8,104, PURASAIWAKKAM,NADAR COLONY,PERIYAR EVR I LANE,13.08020673,80.25106543
8,104, KILPAUK,KILPAUK,PULLAPURAM I STEET (MAIN ROAD),13.07725513,80.24690401
8,104, CHETPET,NEW BHOOPATHY NAGAR,NEW BHOOPATHY NAGAR SLUM MAIN ROAD,13.07483234,80.24372648
8,104, CHETPET,NEW BHOOPATHY NAGAR,NEW BHOOPATHY NAGAR SLUM MAIN ROAD,13.07469203,80.24268442
8,104, CHETPET,CHETPET,RAILWAY BORDER ROAD,13.07396115,80.24086808
8,104, PURASAIWAKKAM,PURASAIWAKKAM,SADASIVAM STREET,13.08747948,80.25154483
8,104, PURASAIWAKKAM,PURASAIWAKKAM,SUNDARAM LANE,13.08747071,80.25082725
8,104, PURASAIWAKKAM,KILPAUK,MILLERS RD,13.08757483,80.25083834
8,106, AMINJIKARAI,AMINJIKARAI,PERUMAL KOIL STREET,13.073583,80.22636036
8,106, AMINJIKARAI,MUTHIRULANDI COLONY,AMMAN KOIL STREET (MH COLONY,13.06836937,80.22184979
8,106, AMINJIKARAI,MUTHIRULANDI COLONY,MUTHIRULAND COLONY II MAIN ROAD,13.0678036,80.22211542
8,107, SHENOY NAGAR,SHENOY NAGAR,HARRINGTON ROAD,13.07278867,80.2316955
8,107, SHENOY NAGAR,SHENOY NAGAR,(AVVAIPURAM) SLUM ROAD,13.06876152,80.22894464
8,107, CHETPET,CHETPET,MC NICHOLS ROAD (ZONAL OFFICE SIDE),13.07355509,80.23976106
8,107, CHETPET,CHETPET,MC NICHOLS ROAD (ZONAL OFFICE SIDE),13.0735596,80.23983542
8,107, CHETPET,MANGALAPURAM,MANGALAPURAM MAIN ROAD,13.07241021,80.246
8,107, CHETPET,CHETPET,RAILWAY BORDER ROAD,13.07396556,80.24086515
8,107, CHETPET,SRINIVASA NAGAR,MAYAR SATHIYAMOORTHY SALAI,13.07417616,80.25187555
8,107, CHETPET,AYANAVARAM,MAYAR RAMANATHAN SALAI,13.07161708,80.24902696
8,108, CHOOLAIMEDU,CHOOLAIMEDU,ANNANEDUMPATHAI,13.06575947,80.2226094
8,94, VILLIVAKKAM,VILLIVAKKAM,NORTH JAGANATHAN NAGAR 3RD MAIN ROAD,13.1129043,80.20048342
8,94, VILLIVAKKAM,HIGHCOURT COLONY,ANNAI SATHIYA NAGAR,13.1031389,80.19762055
8,95, ANNA NAGAR WEST,I BLOCK SHANTHI COLONY,18TH MAIN ROAD,13.09494598,80.1990338
8,95, VILLIVAKKAM,VILLIVAKKAM,NEW AVADI ROAD,13.09876171,80.21381052
8,96, AYANAVARAM,KONNUR HIGH ROAD,KONNUR HIGH ROAD,13.09935123,80.22354025
8,96, AYANAVARAM,KONNUR HIGH ROAD,KONNUR HIGH ROAD,13.10013846,80.22793816
8,96, AYANAVARAM,KALAIGNAR KARUNANIDHI NAGAR,KALAIGNAR KARUNANIDHI NAGAR 5TH   STREET,13.09789856,80.23184435
8,96, AYANAVARAM,KALAIGNAR KARUNANIDHI NAGAR,KALAIGNAR KARUNANIDHI NAGAR 11TH  STREET,13.09806714,80.23243235
8,96, AYANAVARAM,KALAIGNAR KARUNANIDHI NAGAR,KALAIGNAR KARUNANIDHI NAGAR 11TH  STREET,13.09806824,80.23240192
8,97, AYANAVARAM,AYANAVARAM,SOLAI 3RD STREET (2ND LANE),13.09015167,80.22909753
8,98, AYANAVARAM,AYANAVARAM,WATER WORKS AVENUE ROAD,13.08651517,80.23470581
8,99, ANNA NAGAR WEST,J & H BLOCK,16TH MAIN ROAD,13.08909073,80.19885326
8,99, ANNA NAGAR WEST,J & H BLOCK,16TH MAIN ROAD,13.08908961,80.19887115
8,99, ANNA NAGAR WEST,2ND AVENUE,2ND AVENUE (HIGHWAYS),13.08552929,80.19880222
8,99, ANNA NAGAR WEST,2ND AVENUE,2ND AVENUE (HIGHWAYS),13.085529,80.19881726
9,110, NUNGAMBAKKAM,NUNGAMBAKKAM,LAKE AREA 1ST MAIN ROAD,13.05316171,80.241316
9,111, THOUSAND LIGHTS,THOUSAND LIGHTS,GULAM ABBAS ALIKHAN X STREET,13.05678372,80.25182721
9,111, TEYNAMPET,TEYNAMPET,ANNA SALAI,13.05953023,80.25747198
9,111, THOUSAND LIGHTS,MAKKIS GARDEN,RAMASWAMY STREET,13.0623597,80.25486221
9,112, KODAMBAKKAM,VARADARAJANPET,RAJAPURANIKAR STREET,13.05821601,80.22773362
9,112, KODAMBAKKAM,VELLALA STREET,VARADARAJANPET MAIN ROAD,13.05647472,80.2271795
9,112, CHOOLAIMEDU,CHOOLAIMEDU,RAILWAY BOARDER ROAD,13.06527629,80.23254654
9,112, KODAMBAKKAM,PULIYUR,PULIYUR 1ST MAIN ROAD,13.05497765,80.22588351
9,112, KODAMBAKKAM,TRUSTPURAM,TRUSTPURAM 4TH CROSS STREET,13.05567367,80.22564437
9,112, KODAMBAKKAM,KODAMBAKKAM,DASSPURAM,13.05822586,80.22600576
9,112, KODAMBAKKAM,KODAMBAKKAM,DASSPURAM,13.05806882,80.22526572
9,112, KODAMBAKKAM,KODAMBAKKAM,VANNARAPATHAI,13.05551843,80.21840839
9,113, T.NAGAR,PARTHA SARATHY PURAM,THANGAVELU STREET,13.05245416,80.23937992
9,114, CHEPAUK,CHEPAUK,VALAIAH SALAI,13.06382131,80.28059316
9,114, CHEPAUK,CHEPAUK,KAMARAJER SALAI BEECH ROAD,13.06359183,80.28376116
9,114, CHEPAUK,CHEPAUK,KAMARAJER SALAI BEECH ROAD,13.06008819,80.2832646
9,115, ROYAPETTAH,ROYAPETTAH,MANICKAM (M) STREET,13.05540502,80.26907638
9,116, TRIPLICANE,TRIPLICANE,BHARATHI ROAD (PYCRAFTS ROAD),13.05791475,80.27965863
9,116, TRIPLICANE,TRIPLICANE,DR. BESANT ROAD,13.05136852,80.27742525
9,116, TRIPLICANE,TRIPLICANE,SERVICE ROAD,13.05425296,80.28177505
9,116, TRIPLICANE,TRIPLICANE,SERVICE ROAD,13.05132697,80.28129865
9,117, T.NAGAR,T.NAGAR,HABIBULLAH ROAD,13.049945,80.24076227
9,117, T.NAGAR,PARTHA SARATHY PURAM,SIVASAILAM STREET,13.05020397,80.2363622
9,117, T.NAGAR,LALA THOTTAM,MAMBALAM HIGH ROAD,13.05072222,80.23078798
9,117, T.NAGAR,LALA THOTTAM,MAMBALAM HIGH ROAD,13.05023233,80.23069312
9,118, THOUSAND LIGHTS,GOPALAPURAM,DAMODHARAN STREET,13.04922266,80.25478223
9,119, ROYAPETTAH,ROYAPETTAH,MUTHIAH MUDALI GARDEN STREET(INCLUDING HUTS),13.04757457,80.27095134
9,119, ROYAPETTAH,ROYAPETTAH,MUTHIAH MUDALI GARDEN STREET(INCLUDING HUTS),13.04999379,80.2711727
9,119, ROYAPETTAH,ROYAPETTAH,MUTHIAH MUDALI GARDEN STREET(INCLUDING HUTS),13.05047435,80.27112315
9,119, ROYAPETTAH,ROYAPETTAH,AVVAI SHANMUGAM SALAI,13.04768433,80.26672894
9,119, TRIPLICANE,TRIPLICANE,SAIVA MUTHIAH MUDALI 6TH STREET,13.04935342,80.27092329
9,119, MYLAPORE,MYLAPORE,SANTHAVELI 1ST STREET,13.04099099,80.26211597
9,119, MYLAPORE,CIT COLONY,C.I.T. COLONY 2ND LINK STREET,13.0395124,80.26189432
9,121, ROYAPETTAH,"MAIN ROAD, ROTTARY NAGAR",ROTARY NAGAR MAIN ROAD,13.04365148,80.27554107
9,121, ROYAPETTAH,MAYANDI COLONY,MAYANDI COLONY 2ND STREET,13.04514821,80.27551529
9,121, ROYAPETTAH,"MAIN ROAD, ROTTARY NAGAR",ROTARY NAGAR MAIN ROAD,13.04637501,80.2768069
9,121, MYLAPORE,MYLAPORE,KANESA PURAM STREET,13.04238089,80.27134577
9,121, MYLAPORE,MYLAPORE,KANESA PURAM STREET,13.04228418,80.27120748
9,121, MYLAPORE,MYLAPORE,MUNDAKANNI AMMAN KOVIL STREET,13.04095795,80.26908575
9,121, MYLAPORE,MYLAPORE,MUNDAKANNI AMMAN KOVIL STREET,13.04096364,80.26915379
9,121, CHEPAUK,CHEPAUK,MARINA SERVICE ROAD,13.0449733,80.28034702
9,121, ROYAPETTAH,ROYAPETTAH,AVVAI SHANMUGAM SALAI (ALIAS) LLYODS ROAD,13.04702114,80.27372658
9,122, NANDANAM,NANDANAM,TANK BUND ROAD,13.03203069,80.23930559
9,122, RAJA ANNAMALAI PURAM,RAJA ANNAMALAI PURAM,PUGHS ROAD,13.02312267,80.2519193
9,122, RAJA ANNAMALAI PURAM,RAJA ANNAMALAI PURAM,PUGHS ROAD,13.02185117,80.25111228
9,122, TEYNAMPET,TEYNAMPET,KAVINGAR BHARATHIDASAN ROAD,13.03525698,80.24987627
9,122, TEYNAMPET,TEYNAMPET,ALAYAMMAN KOIL  STREET (OLD),13.0358935,80.24455366
9,122, RAJA ANNAMALAI PURAM,TURN BULLS ROAD T.N.H.B. COLONY,CENATOPH IST LANE,13.0301947,80.24657313
9,123, MYLAPORE,MYLAPORE,SUBBARAYAN SALAI CANAL BANK ROAD,13.03453338,80.26631679
9,123, MYLAPORE,PALLAKKU MANIYAM,PALLAKKU MANIYAM 9TH LANE,13.03627824,80.2665102
9,123, MYLAPORE,MYLAPORE,SUBBARAYAN SALAI CANAL BANK ROAD,13.0342176,80.26539479
9,123, MYLAPORE,LUZ,LUZ CHURCH ROAD,13.03739981,80.26328313
9,123, MYLAPORE,LUZ,LUZ CHURCH ROAD,13.03740541,80.26330415
9,123, MYLAPORE,LUZ,LUZ AVENUE,13.0357283,80.2629221
9,123, MYLAPORE,MYLAPORE,SUBBARAYAN SALAI CANAL BANK ROAD,13.03233992,80.26298985
9,123, TEYNAMPET,TEYNAMPET,CORPORATION COLONY 2ND STREET,13.0355814,80.25068548
9,123, TEYNAMPET,TEYNAMPET,VENKATRAMAN STREET,13.0377706,80.24744422
9,123, TEYNAMPET,TEYNAMPET,KAVINGAR BHARATHIDASAN ROAD,13.03542212,80.2502652
9,123, RAJA ANNAMALAI PURAM,RAJA ANNAMALAI PURAM,RAJA ANNAMALAIPURAM 3RD CROSS STREET,13.02624134,80.25730937
9,124, MYLAPORE,SLATERPURAM,SLATERPURAM,13.03939279,80.26968146
9,124, MYLAPORE,SLATERPURAM,SLATERPURAM,13.03940439,80.26968517
9,124, MYLAPORE,NATTAN THOTTAM,NATTAN THOTTAM,13.04022485,80.27012384
9,124, MYLAPORE,RAMAKRISHNAPURAM,RAMAKRISHNAPURAM 6TH STREET,13.0368794,80.27038553
9,124, MYLAPORE,SLATERPURAM,SHANMUGAM PILLAI STREET,13.0417667,80.2729455
9,124, MYLAPORE,SLATERPURAM,SHANMUGAM PILLAI STREET,13.04136544,80.27406712
9,124, MYLAPORE,SLATERPURAM,SLATERPURAM,13.04111885,80.27087791
9,124, MYLAPORE,R.K.MUTT ROAD,LALA THOTTAM,13.03472652,80.26732327
9,124, MYLAPORE,MYLAPORE,VENKATESA AGRAHARAM IST LANE,13.03363556,80.26667507
9,124, MYLAPORE,MYLAPORE,NORTH MADA STREET,13.03425088,80.26946426
9,125, MYLAPORE,KARANEESWARARPURAM,OLD BURIAL GROUND ROAD,13.04005575,80.27541437
9,125, MYLAPORE,KARANEESWARARPURAM,OLD BURIAL GROUND ROAD,13.04012549,80.27553947
9,125, MYLAPORE,MEENAMBALPURAM,MEENAMBALPURAM,13.04160287,80.2751004
9,125, MYLAPORE,NOCHIKUPPAM,NOCHIKUPPAM SLUM,13.03775062,80.27935862
9,125, MYLAPORE,SANTHOME,LOOP ROAD,13.0332023,80.27954513
9,125, MYLAPORE,SANTHOME,LOOP ROAD,13.03502125,80.27975015
9,125, MYLAPORE,SANTHOME,SERVICE ROAD,13.04161124,80.27986686
9,125, MYLAPORE,MYLAPORE,MANGOLLAI,13.03385698,80.27153285
9,125, MYLAPORE,KARANEESWARARPURAM,BAZAR ROAD 2ND LANE,13.03659055,80.27453505
9,125, MYLAPORE,KAILASAPURAM,KAILASAPURAM 5TH LANE,13.04262853,80.27708913
9,125, MYLAPORE,KAILASAPURAM,KAILASAPURAM 5TH LANE,13.0426857,80.27719591
9,126, MANDAVELIPAKKAM,MANDAVELIPAKKAM,RAMAKRISHNA MUTT ROAD,13.02657714,80.26594668
9,109, CHOOLAIMEDU,EAST NAMACHIVAYAPURAM,EAST NAMACHIVAYAPURAM 3RD STREET,13.06751266,80.22872207
9,109, CHOOLAIMEDU,CHOOLAIMEDU,ANNANEDUMPATHAI,13.06579145,80.2226341
9,109, CHOOLAIMEDU,GILL NAGAR,GILL NAGAR CENTRAL SCHOOL ROAD,13.06389066,80.22432598
9,110, CHETPET,CHETPET,HARRINGTON ROAD 6TH AVENUE,13.06748092,80.23663012
9,110, CHETPET,CHETPET,HARRINGTON ROAD 7TH AVENUE,13.0680339,80.23617268
9,110, NUNGAMBAKKAM,SEETHA NAGAR,SEETHA NAGAR 2ND STREET,13.06247288,80.24126542
9,110, NUNGAMBAKKAM,JAYALAKSHMI PURAM,JAYALAKSHMI PURAM 4TH STREET,13.06125053,80.23986928
9,110, NUNGAMBAKKAM,KAMARAJAPURAM,KAMARAJAPURAM MAIN ROAD,13.05622942,80.23782976
9,110, NUNGAMBAKKAM,KAMARAJAPURAM,KAMARAJAPURAM MAIN ROAD,13.05570111,80.2378113
9,110, NUNGAMBAKKAM,KAMARAJAPURAM,KAMARAJAPURAM MAIN ROAD,13.05487972,80.23777724
13,170, GUINDY,SIDCO INDUSTRIAL ESTATE,KATHIPARA ROAD,1438382.153,80.21161298
13,170, GUINDY,SIDCO INDUSTRIAL ESTATE,KATHIPARA ROAD,1438374.889,80.21157481
13,170, GUINDY,SIDCO INDUSTRIAL ESTATE,KATHIPARA ROAD,1438356.11,80.2114375
13,170, GUINDY,SIDCO INDUSTRIAL ESTATE,KATHIPARA ROAD,1438267.263,80.21084562
13,170, EKKATTUTHANGAL,EKKATTUTHANGAL,REDDY 2ND STREET,1439225.871,80.20653854
13,170, EKKATTUTHANGAL,EKKATTUTHANGAL,ALACHIAMAN KOIL STREET,1439319.336,80.21193033
13,170, SAIDAPET,NERUPPUMEDU,NERUPPU MEDU SLUM MAIN ROAD,1439278.887,80.21878631
13,171, T.NAGAR,KAVERI NAGAR,RAILWAY BORDER I STREET(KAVERI NAGAR),1440591.074,80.22594155
13,171, T.NAGAR,KAVERI NAGAR,RAILWAY BORDER I STREET(KAVERI NAGAR),1440584.019,80.22593041
13,171, SAIDAPET,LITTLE MOUNT,MUTHIYALU STREET,1438594.539,80.22324396
13,171, SAIDAPET,LITTLE MOUNT,VELACHERY MAIN ROAD,1438562.334,80.22329965
13,171, NANDANAM,NANDANAM,GOVT. FARM II STREET,1439400.586,80.23416371
13,171, SAIDAPET,JOTHIAMMAL NAGAR,JOTHIAMMAL NAGAR (OLD),1439339.58,80.23008178
13,171, SAIDAPET,LITTLE MOUNT,L.D.G. ROAD,1438866.108,80.22643064
13,171, SAIDAPET,SRINAGAR COLONY,SATHYA NAGAR SLUM,1438898.047,80.23144778
13,171, KOTTURPURAM,SURIYA NAGAR,SURIYA NAGAR APPROACH ROAD,1439415.635,80.23814514
13,171, SAIDAPET,LITTLE MOUNT,TALUK OFFICE ROAD,1438611.49,80.22691356
13,173, RAJA ANNAMALAI PURAM,PATTINAMBAKKAM,LOOP ROAD,1439744.197,80.27645933
13,173, RAJA ANNAMALAI PURAM,MANDAVELIPAKKAMPAKKAM,SOUTH CANAL BANK ROAD,1440028.026,80.26955225
13,173, RAJA ANNAMALAI PURAM,SRINIVASA AVENUE,SRINIVASA AVENUE,1439725.655,80.25928022
13,173, R.K.NAGAR,R.K. NAGAR,GOVINDASAMY NAGAR SLUM,1439683.612,80.25299025
13,173, RAJA ANNAMALAI PURAM,RAJA ANNAMALAI PURAM,P.S.KUMARASAMY RAJA SALAI,1439304.549,80.26015983
13,174, VELACHERY,VELACHERY,VELACHERY MAIN ROAD,1437028.504,80.21646087
13,174, GUINDY,GUINDY,RACE COURCE ROAD,1437955.383,80.21262151
13,174, GUINDY,GUINDY,RACE COURCE ROAD,1438173.361,80.21351009
13,174, GUINDY,GUINDY,RACE COURCE ROAD,1437812.851,80.21259517
13,175, ADYAR,INDIRA NAGAR,INDIRA NAGAR 2ND AVENUE,1436708.865,80.2521912
13,175, THIRUVANMIYUR,INDIRA NAGAR,3RD AVENUE INDIRA NAGAR,1436248.872,80.25584813
13,175, ADYAR,INDIRA NAGAR,INDIRA NAGAR 13TH CROSS ROAD,1436778.467,80.25047576
13,175, ADYAR,K.B.NAGAR,BALRAM STREET,1437525.165,80.25606813
13,177, VELACHERY WEST,SASTRI NAGAR,SASTRI NAGAR 5TH STREET,1436097.65,80.20647654
13,177, VELACHERY WEST,T.N.H.B. COLONY,TN.H.B APPROACH ROAD (ALIAS) MARUDAPANDI SALAI,1435878.078,80.21795939
13,178, ORANDIAMMAN KOIL STREET,DHANDEESWARAR NAGAR,ORANDIAMMAN KOIL STREET,1435168.161,80.22073775
13,178, VELACHERY MAIN ROAD,VELACHERY,VELACHERY MAIN ROAD,1434616.311,80.22098941
13,179, VELACHERY EAST,SEETHAPATHY NAGAR,THIRUVEETHIAMMAN KOVIL STREET,1435618.304,80.22755731
13,181, THIRUVANMIYUR,THIRUVANMIYUR,CHOLAPURAM STREET,1436029.48,80.26012852
13,181, THIRUVANMIYUR,THIRUVANMIYUR,JAYARAM CHETTY STREET,1435786.403,80.26881402
13,181, BESANT NAGAR,BESANT NAGAR,ANNA COLONY 4TH STREET,1436712.476,80.26440111
13,182, THIRUVANMIYUR,THIRUVALLUVAR NAGAR,THIRUVALLUVAR NAGAR BEACH ROAD 1ST LANE,1434742.299,80.26682569
